name,address,city,state,postal_code,country
Sovereign Modern Thai Cuisine,1460 J St,San Diego,CA,92101,USA
Alys Taos Eats,498 NM-150,Arroyo Seco,NM,87514,USA
ACEQ Restaurant,480 NM-150,Arroyo Seco,NM,87514,USA
Big Island Kine,1648 Myrtle Avenue,Eureka,CA,95501,USA
Shawarma Guys,3012 Grape Street,San Diego,CA,92102,USA
Tuetano Taqueria,2540 Congress St,San Diego,CA,92110,USA
Donabe Asian Kitchen,133 Paseo Del Pueblo Norte,Taos,NM,87571,USA
Gutiz,812B Paseo Del Pueblo Norte,Taos,NM,87571,USA
KINDRED,1503 30th St,San Diego,CA,92102,USA
Ranchos Plaza Grill,8 Ranchos Plz,Ranchos De Taos,NM,87557,USA
Barley and Salt Tap House and Kitchen,1699 White Mountain Hwy,North Conway,NH,3860,USA
Shepard Barbecue,7801 Emerald Dr,Emerald Isle,NC,28594,USA
Floyds 1921 Restaurant,400 Bridges St,Morehead City,NC,28557,USA
Third Wave Cafe and Wine Bar,204 Flagler Ave,New Smyrna Beach,FL,32169,USA
Big Daves Bagels and Deli,1130 Eastman Rd,North Conway,NH,3860,USA
Moat Mountain Smokehouse and Brewing Co,3378 White Mountain Hwy,North Conway,NH,3860,USA
Amos Mosquitos Restaurant,703 E Fort Macon Rd,Atlantic Beach,NC,28512,USA
Rose Villa Restaurant,43 W Granada Blvd,Ormond Beach,FL,32174,USA
Arepita Beach,174 N Beach St,Daytona Beach,FL,32114,USA
Redheaded Stranger,305 Arrington St,Nashville,TN,37207,USA
Millie's Restaurant,3218 S Atlantic Ave,Daytona Beach Shores,FL,32118,USA
Antonio's The Taste of Mexico,1379 Paseo Del Pueblo Sur,Taos,NM,87571,USA
The Garlic,556 E 3rd Ave,New Smyrna Beach,FL,32169,USA
Bottle Cap,2403 12th Ave S,Nashville,TN,37204,USA
Panheads Pizzeria,113 S Orange St,New Smyrna Beach,FL,32168,USA
King Tut's Food Truck,3716 Nolensville Pk,Nashville,TN,37211,USA
El Mirasol Cocina Mexicana,140 E Palm Canyon Dr,Palm Springs,CA,92264,USA
Gabino's Creperie,170 E Palm Canyon Drive Unit #4,Palm Springs,CA,92264,USA
Pie Town Tacos,614 Ewing Ave #4628,Nashville,TN,37203,USA
Homegrown Taproom and Kitchen,2720 Old Lebanon Rd,Nashville,TN,37214,USA
Joe's Meat Market,28 Main St,South Bound Brook,NJ,8880,USA
The Real Italian Deli,44795 San Pablo Ave,Palm Desert,CA,92260,USA
Gastro Grind Burgers,73850 CA-111 #B,Palm Desert,CA,92260,USA
East Side Banh Mi,1000 Gallatin Ave,Nashville,TN,37206,USA
Moo Yai Thai Restaurant,1064 Ocean Ave N,Sea Bright,NJ,7760,USA
Big Pinks BBQ Food Truck,483 Union Ave,Bridgewater Township,NJ,8807,USA
Pablo‚Äôs Tacos & Beer,42-425 Jackson St C-113,Indio,CA,92203,USA
The Chubby Pickle,23 Bay Ave,Highlands,NJ,7732,USA
Good Company,1200 W 76th St,Cleveland,OH,44102,USA
Chula Artisan Eatery,47150 Washington St Ste B,La Quinta,CA,92253,USA
Astoria Cafe & Market,5417 Detroit Ave,Cleveland,OH,44102,USA
Orozco's Restaurant,1126 Ashford Ave,San Juan,PR,,USA
Turf Surf and Earth,46 E Main St,Somerville,NJ,8876,USA
Firehole Bar-B-Que Co.,120 Firehole Ave,West Yellowstone,MT,59758,USA
Haldi Chowk,1409 NJ-35 #2012,Middletown Township,NJ,7748,USA
Salao Tapas and Bar,Carr 1 km 30.9,Caguas,PR,,USA
Budare,1552 PR-25,San Juan,PR,,USA
Masons Creamery,4401 Bridge Ave,Cleveland,OH,44113,USA
Kest√© Pizza and Vino,66 Gold St,New York,NY,10038,USA
Fat Cats,2061 W 10th St,Cleveland,OH,44113,USA
Double Dubs Food Truck,,Laramie,WY,,USA
El Fogon De La 31,63JR+583,Juncos,PR,,USA
El Grifo,97 C. Betances,Caguas,PR,,USA
Mercado La Carreta,#279 C. de la Luna,San Juan,PR,,USA
Chaatable,345 40th Ave N,Nashville,TN,37209,USA
Mabels BBQ,2050 E 4th St,Cleveland,OH,44115,USA
Ray's Place,2412 Spenard Rd,Anchorage,AK,99503,USA
Alibi Wood Fire Pizzaria and Bakery,404 S 4th St,Laramie,WY,82070,USA
Rowley Inn,1104 Rowley Ave,Cleveland,OH,44109,USA
Crowbar & Grill,202 S 2nd St,Laramie,WY,82070,USA
Coda Bakery,230 St. Louisiana Blvd SE C,Albuquerque,NM,87108,USA
Originale Cafe & Deli,400 D St,Anchorage,AK,99501,USA
Tequila 61,445 W 4th Ave,Anchorage,AK,99501,USA
Sweet Melissa,213 S 1st St,Laramie,WY,82070,USA
Born In A Barn,100 E Ivinson Ave,Laramie,WY,82070,USA
Taco Party,126 S 5th St,Grand Junction,CO,81501,USA
Novelli's Crab and Seafood,100 Harbor Street,Florence,OR,97439-9632,USA
Haute Quarter Grill,525 W 4th Ave,Anchorage,AK,99501,USA
Js Prairie Rose Cafe,410 S 2nd St,Laramie,WY,82070,USA
The Acre Restaurant,218 Gold Ave SW,Albuquerque,NM,87102,USA
Guava Tree Cafe,118 Richmond Dr NE,Albuquerque,NM,87106,USA
Highlands Alehouse,133 Prospector Rd # 4109A,Aspen,CO,81611,USA
Waffles and Whatnot,500 Muldoon Rd #5,Anchorage,AK,99504,USA
Seoul Casa,601 E Dimond Blvd #6th,Anchorage,AK,99515,USA
Hickory House Ribs,730 W Main St,Aspen,CO,81611,USA
Kitsune,524 Romero St NW,Albuquerque,NM,87104,USA
Frank's Famous Chicken and Waffles,400 Washington St SE,Albuquerque,NM,87108,USA
Curry Fried Chicken,660 S State St,Salt Lake City,UT,84111,USA
Red Rock Deli,2414 San Mateo Pl NE,Albuquerque,NM,87110,USA
il Bistro Italiano,400 Main St,Grand Junction,CO,81501,USA
Kobe Japanese Restaurant,3947 S Wasatch Blvd,Millcreek,UT,84124,USA
Sauce Boss Southern Kitchen,877 E 12300 S,Draper,UT,84020,USA
Graze,1888 Eastland Ave,Nashville,TN,37206,USA
59er Diner and Cabins,15361 US-2,Leavenworth,WA,98826,USA
Santo Taco,910 900 W,Salt Lake City,UT,84116,USA
The Feisty Pint,359 Colorado Ave,Grand Junction,CO,81501,USA
Fattoush Cafe,1716 Charlotte Ave,Nashville,TN,37203,USA
Papito Moes,7786 S 5600 W Suite 101,West Jordan,UT,84081,USA
Dump City Dumplings,384 SW Upper Terrace Dr,Bend,OR,97703,USA
Nicky's Coal Fired,5026 Centennial Blvd,Nashville,TN,37209,USA
Rockin Dave's Bistro and Backstage Lounge,661 NE Greenwood Ave,Bend,OR,97701,USA
Riddim n Spice,2116 Meharry Blvd,Nashville,TN,37208,USA
Arempas,350 S State St,Salt Lake City,UT,84111,USA
The Pit Room,1201 Richmond Ave,Houston,TX,77006,USA
Soy Bistro,5008 Maryland Way,Brentwood,TN,37027,USA
Once Upon A Thyme,1090 NW State Ave,Chehalis,WA,98532,USA
The Toasted Coconut,1617 Richmond Ave,Houston,TX,77006,USA
Mackinaw's Restaurant,545 N Market Blvd #1,Chehalis,WA,98532,USA
Zydeco Kitchen and Cocktails,919 NW Bond St,Bend,OR,97701,USA
Matteo's Osteria,161 Wailea Ike Pl A107,Wailea,HI,96753,USA
Northwest Sausage and Deli,5945 Prather Rd SW,Centralia,WA,98531,USA
Be More Pacific,506 Yale St Suite E,Houston,TX,77007,USA
Hilo Bay Cafe,123 Lihiwai St,Hilo,HI,96720,USA
Weights and Measures,2808 Caroline St,Houston,TX,77004,USA
Fresco Cafe Italiano,3277 Southwest Fwy ste a,Houston,TX,77027,USA
South Maui Fish Company,1794 S Kihei Rd,Kihei,HI,96753,USA
Castaway Waterfront Restaurant and Sushi Bar,1406 Ocean View Ave,Marathon,FL,33050,USA
Le Yellow Sub,213 Kalanianaole Ave,Hilo,HI,96720,USA
Travelers Table,520 Westheimer Rd,Houston,TX,77006,USA
The Butcher Shop Beer Garden and Grill,209 6th St,West Palm Beach,FL,33401,USA
Cafe Pesto,308 Kamehameha Ave #101,Hilo,HI,96720,USA
Coolinary Cafe,4650 Donald Ross,Palm Beach Gardens,FL,33418,USA
Joey's Kitchen,5095 Napilihau St,Lahaina,HI,96761,USA
Irie Island Eats,4540 Overseas Hwy,Marathon,FL,33050,USA
Herbies Bar and Chowder House,6350 Overseas Hwy,Marathon,FL,33050,USA
Cholo Soy Cocina,3715 S Dixie Hwy,West Palm Beach,FL,33405,USA
Rustica Eatery and Tavern,315 Main Ave,Moorhead,MN,56560,USA
Mein Diner Food Truck,22 1/2 Mile Chena Hot Springs Road,Fairbanks,AK,99712,USA
Salty's on 2nd,706 2nd Ave,Fairbanks,AK,99701,USA
Jazz Bistro on 4th,527 4th Ave B,Fairbanks,AK,99701,USA
Lavelle's Bistro,575 1st Ave,Fairbanks,AK,99701,USA
Daily Clean Food and Drink,6215 S Western Ave,Sioux Falls,SD,57108,USA
Sol Ave. Kitchen,1408 1st Ave N,Moorhead,MN,56560,USA
Hari Om Cuisine Of India,1528 S Cushman St,Fairbanks,AK,99701,USA
Look's Marketplace,500 E 69th St,Sioux Falls,SD,57108,USA
Nichole's Fine Pastry and Cafe,13 8th St S,Fargo,ND,58103,USA
Passage To India Restaurant,855 45th Street South Suite A3 Fargo,Fargo,ND,58103,USA
The Hungry Robot,910 Old Steese Hwy Suite C,Fairbanks,AK,99701,USA
Bread & Circus Sandwich Kitchen,600 N Main Ave #110,Sioux Falls,SD,57104,USA
O So Good Restaurant,529 N Main Ave,Garretson,SD,57030,USA
Lalibela Restaurant,200 S Kiwanis Ave,Sioux Falls,SD,57104,USA
Urban Chislic,431 W 85th St,Sioux Falls,SD,57108,USA
J28 Sandwich Bar,1854 N Young Cir,Hollywood,FL,33020,USA
Mom-Moms Kitchen,2551 Orthodox St,Philadelphia,PA,19137,USA
Blackbird Wood Fire Pizza,206 Broadway N,Fargo,ND,58102,USA
Los Bocados,7191 North FL-7,Parkland,FL,33073,USA
Farmer's Keep,10 S 20th St,Philadelphia,PA,19103,USA
Pounds,612 1st Ave N,Fargo,ND,58102,USA
Woodrow's Sandwich Shop,630 South St,Philadelphia,PA,19147,USA
Guyutes,730 NW 23rd St,Oklahoma City,OK,73103,USA
Chin's Kitchen,4126 NE Broadway,Portland,OR,97232,USA
Kababi Cafe,3828 N University Dr,Sunrise,FL,33351,USA
Viking Soul Food,4255 SE Belmont St,Portland,OR,97215,USA
Chick N Beer,715 NW 23rd St,Oklahoma City,OK,73103,USA
3 Sons Brewing Co,236 N Federal Hwy #104,Dania Beach,FL,33004,USA
Yonder,4636 NE 42nd Ave Suite A,Portland,OR,97218,USA
Stone Sisters Pizza Bar,2124 N Broadway Ave,Oklahoma City,OK,73103,USA
Gaul & Co. Malt House,3133 Gaul St,Philadelphia,PA,19134,USA
Hardena,1754 S Hicks St #2217,Philadelphia,PA,19145,USA
Stogie Joe's Tavern,1801 E Passyunk Ave,Philadelphia,PA,19148,USA
Travel By Taste Deli and Market,4818 N MacArthur Blvd,Warr Acres,OK,73122,USA
G√ºero Tortas,200 NE 28th Ave,Portland,OR,97232,USA
Krakatoa Indonesian Cuisine,1910 Hollywood Blvd #B,Hollywood,FL,33020,USA
Tumerico,2526 E 6th St,Tucson,AZ,85716,USA
Mr and Mrs Buns,15572 Sunset Dr,Miami,FL,33193,USA
Ceviche's,7210 Wrightsville Ave,Wilmington,NC,28403,USA
Fat Sully's Pizza,3237 E Colfax Ave,Denver,CO,80206,USA
The Saucee Sicilian,1807 N Classen Blvd,Oklahoma City,OK,73106,USA
Seasons & Regions Seafood Grill,6660 SW Capitol Hwy,Portland,OR,97219,USA
Pirate Republic Seafood Restaurant,400 SW 3rd Ave,Fort Lauderdale,FL,33315,USA
MayMoes Cajun Grill,981 S Main St Ste 170,Logan,UT,84321,USA
Kaedama,204 Boston Ave,El Paso,TX,79902,USA
AVIV,1125 SE Division St,Portland,OR,97202,USA
Blue Pan Pizza,3930 W 32nd Ave,Denver,CO,80212,USA
Hop and Grind,17 Madbury Rd,Durham,NH,3824,USA
Sabores,255 Main St # 300,Logan,UT,84321,USA
il porcellino salumi,4324 W 41st Ave,Denver,CO,80212,USA
Just BE Kitchen,2364 15th St,Denver,CO,80202,USA
The Pie Dump,20 W 1400 S,Garland,UT,84312,USA
Florence's Restaurant,1437 NE 23rd St,Oklahoma City,OK,73111,USA
Herm's Inn,1435 Canyon Rd,Logan,UT,84321,USA
Pingala Cafe and Eatery,1 Mill St,Burlington,VT,5401,USA
Grammy's Goodies,4601 N Harlan St,Wheat Ridge,CO,80033,USA
El Salvador Los Primos,880 Main St Ste #160,Logan,UT,84321,USA
Areyto Food Truck,,Denver,CO,,USA
Taco Gordo,208 N Winooski Ave,Burlington,VT,5401,USA
Welton Street Cafe,2736 Welton St,Denver,CO,80205,USA
Tandoori Oven,720 E 1000 N,Logan,UT,84321,USA
Hong's Chinese Dumplings,77 Pearl St,Burlington,VT,5401,USA
ZZQ Texas Craft Barbeque,3201 W Moore St,Richmond,VA,23230,USA
Soul Taco,321 N 2nd St,Richmond,VA,23219,USA
Bluebird Barbecue,317 Riverside Ave,Burlington,VT,5401,USA
Citizen Cider,316 Pine St #114,Burlington,VT,5401,USA
Meat Press,45 Armstrong St,Ottawa,ON ,K1Y 2V6,Canada
Full Belly Deli,3064 Mill St,Reno,NV,89502,USA
OCCO Kitchen and Bar,160 Bay St,Ottawa,ON,K1R 7X8,Canada
Carenas Jamaican Grille,7102 Midlothian Turnpike,Richmond,VA,23225,USA
Art-Is-In Bakery,250 City Centre Ave #112,Ottawa,ON,K1R 1C7,Canada
The Fancy Biscuit,1831 W Cary St,Richmond,VA,23220,USA
Butch and Babes,258 N Winooski Ave,Burlington,VT,5401,USA
Pelican Seafood Market and Grill,1500 Bank St,Ottawa,ON,K1H 7Z2,Canada
Pop's Market on Grace,415 E Grace St,Richmond,VA,23219,USA
Butchers Kitchen Char-B-Que,7689 S Virginia St N,Reno,NV,89511,USA
Pauli's on the North End,65 Salem St,Boston,MA,2113,USA
Pigwich,20 E 5th St,Kansas City,MO,64106,USA
In A Pickle Restaurant,265 Moody St,Waltham,MA,2453,USA
Perly's,111 E Grace St,Richmond,VA,23219,USA
Jax,479 Bronson Ave,Ottawa,ON,K1N 8N8,Canada
In Bocca al Lupo,120 2nd St,Juneau,AK,99801,USA
Carolina Kitchen and BBQ Co,950 Glendale Ave,Sparks,NV,89431,USA
Zerelda's Bistro,9351 Glacier Hwy,Juneau,AK,99801,USA
Highland Fried,1271 Cambridge Street,Cambridge,MA,2139,USA
V's Cellar Door,222 Seward St,Juneau,AK,99801,USA
Forno Rosso Pizzeria,356 S Franklin St,Juneau,AK,99801,USA
Bun Daddy,350 Whittier St,Juneau,AK,99801,USA
Pucker Wilson's,311 Whittier St,Juneau,AK,99801,USA
Yosh's Unique Deli,85 Foothill Road #4,Reno,NV,89511,USA
Veggie Galaxy,450 Massachusetts Ave,Cambridge,MA,2139,USA
Paper Dosa,551 W Cordova Rd,Santa Fe,NM,87505,USA
Washoe Public House,275 Hill St,Reno,NV,89501,USA
Bagelsaurus,1796 Massachusetts Ave,Cambridge,MA,2140,USA
Rowley Farmhouse Ales,1405 Maclovia St,Santa Fe,NM,87505,USA
Dirty Water Dough Company,222 Newbury St,Boston,MA,2116,USA
Dr. Field Goods Kitchen,2860 Cerrillos Rd,Santa Fe,NM,87507,USA
Noble Pie Parlor,777 S Center Stree,Reno,NV,89501,USA
La Colonial Tortilla Factory,212 N Copia St,El Paso,TX,79905,USA
The Beestro,66 E San Francisco St Suite 21,Santa Fe,NM,87501,USA
Krokstrom Scandinavian Comfort Food,3601 Broadway Blvd,Kansas City,MO,64111,USA
Josephs Culinary Pub Santa Fe,428 Agua Fria St,Santa Fe,NM,87501,USA
Delight El Paso,502 N Oregon St,El Paso,TX,79901,USA
Extra Virgin Kansas City,1900 Main St,Kansas City,MO,64108,USA
Desert Oak Barbecue,320 North Zaragosa Suite 105,El Paso,TX,79936,USA
Arable,7 Ave Vista Grande B-6,Santa Fe,NM,87508,USA
Jarocho Authentic Mexican Seafood,719 Kansas Ave,Kansas City,KS,66105,USA
Rulis International Kitchen,4176 N Mesa St,El Paso,TX,79902,USA
Kenji Burger,4-788 Kuhio Hwy,Kapa ªa,HI,96746,USA
Banksia Bake House,105 W 9th St,Kansas City,MO,64105,USA
Saimin Dojo,4-733 Kuhio Hwy Suite 103,Kapa ªa,HI,96746,USA
Lick It Up Food Truck,114 E Mills Ave,El Paso,TX,79901,USA
Kansas City Taco Company,520 Walnut St,Kansas City,MO,64106,USA
Tasty Kabob,6110 N Mesa Street,El Paso,TX,79912,USA
Jo's Diner,807 W Washington Street,San Diego,CA,92103,USA
Mrs. Robinos Restaurant,520 N Union Street,Wilmington,DE,19805,USA
Alforon Mediterranean,5965 El Cajon Blvd,San Diego,CA,92115,USA
Maiale Deli and Salumeria,3301 Lancaster Pike,Wilmington,DE,19805,USA
Tiki Iniki,5-4280 Kuhio Hwy,Princeville,HI,96722,USA
Tiger Tiger Tavern,3025 El Cajon Blvd,San Diego,CA,92104,USA
Jackalopes Neighbourhood Dive Bar,2257 E Hastings St,Vancouver,BC,V5L 1V3,Canada
Farmer and The Cow,413 N Market St,Wilmington,DE,19801,USA
The Fish Counter,3825 Main Street,Vancouver,BC,V5V 3P2,Canada
The Rawbar,346 Broadway Street,Chico,CA,95928,USA
Hanalei Poke Food Truck,5-5190 Kuhio Hwy,Hanalei,HI,96714,USA
Stoney's British Pub,3007 Concord Pike,Wilmington,DE,19803,USA
Chuy's Taco Shop,6663 El Cajon Blvd G,San Diego,CA,92115,USA
The Dolphin Restaurant Hanalei Hawaii,5-5016 Kuhio Hwy,Hanalei,HI,96714,USA
Luigi Vitrone's Pastabilities,415 N Lincoln St,Wilmington,DE,19805,USA
Corduroy Pie Company,758 W 16th Ave,Vancouver,BC,V5Z 1S7,Canada
Tahini,9119 Clairemont Mesa Blvd San Diego,CA 92123,USA,,USA
Locale BBQ Post,1014 N Lincoln St,Wilmington,DE,19805,USA
Grand Ole BBQ Y Asado San Diego,3302 32nd St,San Diego,CA,92104,USA
Tahiti Nui,5-5134 Kuhio Hwy,Hanalei,HI,96714,USA
Tuc Craft Kitchen,60 W Cordova St,Vancouver,BC,V6B 1C9,Canada
Frost Me Sweet Bistro and Bakery,710 The Pkwy,Richland,WA,99352,USA
Momona Noodle Bao,230 W 3rd St,Chico,CA,95928,USA
The Pie Hole,3497 Fraser St,Vancouver,BC,V5V 4C3,Canada
Ethos Bakery & Cafe,2150 Keene Rd,Richland,WA,99352,USA
Sin of Cortez,2290 Esplanade,Chico,CA,95926,USA
Grana Wood Fired Foods,198 E 2nd St,Chico,CA,95928,USA
Upper Crust Bakery and Eatery,130 Main St,Chico,CA,95928,USA
The Banshee,134 W 2nd St,Chico,CA,95928,USA
The Folded Pizza Pie,421 Wellsian Way,Richland,WA,99352,USA
Pieous,166 Hargraves Dr,Austin,TX,78737,USA
Hankook Taqueria,1341 Collier Rd NW,Atlanta,GA,30318,USA
Porter's Real Barbecue,705 The Pkwy,Richland,WA,99352,USA
Boteco Food Truck,1403 E 7th Street,Austin,TX,78702,USA
Greens And Gravy Restaurant,1540 Ralph David Abernathy Blvd,Atlanta,GA,30310,USA
Avery's On Tulane,2510 Tulane Ave,New Orleans,LA,70119,USA
Seithers Seafood,279 Hickory Ave,New Orleans,LA,70123,USA
Piece of Meat Butcher Shop and Restaurant,3301 Bienville St,New Orleans,LA,70119,USA
Vinny's Bakery,1107 W Lewis St,Pasco,WA,99301,USA
SLAB BBQ & Beer,7101 W TX-71,Austin,TX,78735,USA
Holy Roller,509 Rio Grande St,Austin,TX,78701,USA
Twisted Soul Cookhouse and Pours,1133 Huff Rd NW,Atlanta,GA,30318,USA
Valentina's Tex Mex BBQ,11500 Manchaca Rd,Austin,TX,78745,USA
Purgatory Bar,62 East 700 South,Salt Lake City,UT,84111,USA
Laziz Kitchen,912 Jefferson St W,Salt Lake City,UT,84101,USA
OneTaco,12200 Research Blvd #400,Austin,TX,78759,USA
Yakitori Jinbei,2421 Cobb Pkwy SE,Smyrna,GA,30080,USA
Proper Burger Company,865 Main St,Salt Lake City,UT,84111,USA
Hruska's Kolaches,2030 South 900 East,Salt Lake City,UT,84105,USA
Rreal Tacos,100 6th St NE Atlanta,GA 30308,USA,,USA
Curry Pizza,2927 South 5600 West D,West Valley City,UT,84120,USA
Finn's Cafe,1624 1100 E,Salt Lake City,UT,84105,USA
Red's Chinese,3048 St Claude Ave,New Orleans,LA,70117,USA
Luna Rosa Puerto Rican Grill y Tapas,2603 SE Military Drive,San Antonio,TX,78223,USA
Turkey and the Wolf,739 Jackson Ave,New Orleans,LA,70130,USA
Marjie's Grill,320 S Broad Ave,New Orleans,LA,70119,USA
Dignowity Meats,1701 E Houston St,San Antonio,TX,78202,USA
Ma Harper's Creole Kitchen,1816 N New Braunfels Ave,San Antonio,TX,78208,USA
Taqueria Molcajetes,1195 W College Ave,Santa Rosa,CA,95401,USA
Zazu Kitchen and Farm,6770 McKinley Street,Sebastopol,CA,95472,USA
The Root Cafe,1500 Main Street, Little Rock,AR,72202,USA
Eight Noodle Shop,1408 Clay Street,Napa,CA,94559,USA
Smoke Shack BBQ,3714 Broadway Street,San Antonio,TX,78209,USA
Wrigleyville Grill,602 Northwest Loop 410 #146,San Antonio,TX,78216,USA
Fat Tummy Empanadas,2922 W Commerce St,San Antonio,TX,78207,USA
Cochon Volant BBQ Smokehouse,18350 Sonoma Hwy,Sonoma,CA,95476,USA
Simply Vietnam Express,3381 Cleveland Ave,Santa Rosa,CA,95403,USA
The Fold Botanas and Bar,3501 Old Cantrell Rd,Little Rock,AR,72202,USA
North Bar,3812 J.F.K. Blvd,North Little Rock,AR,72116,USA
Bruno's Little Italy,310 Main St #101,Little Rock,AR,72201,USA
Zoftig Eatery,57 Montgomery Dr,Santa Rosa,CA,95404,USA
Flyway Brewing,314 Maple St,North Little Rock,AR,72114,USA
La Terraza Rum and Lounge,3000 Kavanaugh Blvd,Little Rock,AR,72205,USA
Storm Castle Cafe and Catering,5 Tai Ln,Bozeman,MT,59715,USA
Bella Luna Bar and Pizza Cafe,731 N Dearborn Street,Chicago,IL,60654,USA
Blue Toba,1690 Ashland St,Ashland,OR,97520,USA
Broke Da Mouth Grindz,74-5565 Luhia St B-2,Kailua-Kona,HI,96740,USA
mfk restaurant,432 W Diversey Pkwy,Chicago,IL,60614,USA
La Scarola,721 W Grand Ave,Chicago,IL,60654,USA
Ruins,825 N Monroe Street,Spokane,WA,99201,USA
Sun Wah BBQ,5039 N Broadway,Chicago,IL,60640,USA
Nordic Smoke BBQ Food Truck,,Spokane,WA,99224,USA
Agave,5 Granite St,Ashland,OR,97520,USA
Roost Fried Chicken,1520 W Main St.,Bozeman,Montana,59715,USA
Bok a Bok,1427 10th Ave,Seattle,WA,98122,USA
Original Thai Cuisine LLC,75-5629 Kuakini Hwy,Kailua-Kona,HI,96740,USA
Del Seoul,2568 N Clark St,Chicago,IL,60614,USA
Piroshki on 3rd,710 3rd Ave,Seattle,WA,98104,USA
Kanaka Kava,75-5803 Alii Dr,Kailua-Kona,HI,96740,USA
Manny's Coffee Shop & Deli,1141 S Jefferson St,Chicago,IL,60607,USA
Island Lava Java,68-1845 Waikoloa Rd,Waikoloa Village,HI,96738,USA
Saucy Porka,400 S Financial Pl,Chicago,IL,60605,USA
Sisters and Brothers,544 Elliott Ave W #3910,Seattle,WA,98119,USA
Red Door,3401 Evanston Ave N,Seattle,WA,98103,USA
Grand Harbor,1492 Old Bayshore Hwy,Burlingame,CA,94010,USA
Rebel Kitchen,79-7399 Hawaii Belt Rd,Kealakekua,HI,96750,USA
Street Food 360,801 Islington,Portsmouth,NH,3801,USA
Ivan's Cookhouse,14815 Biscayne Blvd,North Miami,FL,33181,USA
Red Wagon Pizza Company,5416 Penn Ave S,Minneapolis,MN,55419,USA
Pizzeria Credo,4520 California Ave SW,Seattle,WA,98116,USA
Scolari's Good Eats,1303 Park St,Alameda,CA,94501,USA
Foster's Kitchen,75-5805 Ali'i Dr,Kailua-Kona,HI,96740,USA
LOBA Restaurant,7420 Biscayne Blvd ,Miami,FL,33138,USA
Pazzo,1179 Laurel Street,San Carlos,CA,94070,USA
Umeke's Poke Bowls,75-143 Hualalai Road #105,Kailua-Kona,HI,96740,USA
Calafia Cafe,855 El Camino Real ,Palo Alto,CA,94301,USA
W.E.P.A at Brix 581,581 5th St,Oakland,CA,94607,USA
Sweet n Savory Cafe,1611 Pavilion Pl,Wilmington,NC,28403,USA
Southern Cafe,2000 MacArthur Blvd,Oakland,CA,94602,USA
Cast Iron Kitchen,8024 Market Street unit 6,Wilmington,NC,28411,USA
WOOD SHOP BBQ,2513 S Jackson St,Seattle,WA,98144,USA
Something Fishy Seafood,3436 S College Rd,Wilmington,NC,28412,USA
Chef Alisah's Restaurant,San Marcos Plaza,5931 N Oracle Tucson,AZ,85704,USA
The Purple Carrot,4480 S. Hagadorn Road ,Okemos,MI,48864,USA
Inca's Peruvian Cuisine,6878 E Sunrise Dr,Tucson,AZ,85750,USA
The Cosmos,611 E Grand River Ave,Lansing,MI,48906,USA
The Copper Penny,109 Chestnut St,Wilmington,NC,28402,USA
Mojo Donuts & Fried Chicken,8870 SW 40th Street,Miami,FL,33165,USA
Renee's Organic Oven,7065 E Tanque Verde Rd,Tucson,AZ,85715,USA
Aloha Kitchen,2950 S Alma School Road ,Mesa,AZ,85210,USA
The Post Brewing Company,1258 South Hover Road,Longmont,CO,80501,USA
One90 Smoked Meats,10240 Northwest Hwy,Dallas,TX,75238,USA
Tacos Chiwas,1923 E McDowell Rd,Phoenix,AZ,85006,USA
GRUBSTAK,4165 South Gilbert Road,Suite 5 Chandler,AZ,85249,USA
Whistle Britches,6110 Frankford Rd,Dallas,TX,75252,USA
Audrey Jane's Pizza Garage,2675 13th St,Boulder,CO,80304,USA
Tacos Mariachi,602 Singleton Blvd,Dallas,TX,75212,USA
Nora Restaurant and Bar,1928 Greenville Ave,Dallas,TX,75206,USA
Momo Ghar Ohio,1265 Morse Road,Columbus,OH,43229,USA
Ray Ray's Hog Pit Food Truck,2619 N High St,Columbus,OH,43202,USA
Pierogi Mountain,2216 Summit St,Columbus,OH,43201,USA
Bootleggers Modern American Smokehouse,7217 E 1st St,Scottsdale,AZ,85251,USA
Nighthawk Breakfast Bar,417 Washington Blvd,Venice,CA,90292,USA
Sweet Carrot,1417 W 5th Ave,Columbus,OH,43212,USA
Ena's Caribbean Kitchen,2444 Cleveland Ave,Columbus,OH,43211,USA
Zoe Ma Ma,2010 10th St,Boulder,CO,80302,USA
Rep√∫blica Empanada Restaurant,204 E 1st Ave,Mesa,AZ,85210,USA
Aloy Thai Cuisine,2720 Canyon Blvd,Boulder,CO,80302,USA
Ray Ray's Hog Pit,2619 N High Street,Columbus,OH,43202,USA
Cafe Bourbon Street,2216 Summit Street,Columbus,OH,43201,USA
The Roost,526 Main Street,Longmont,CO,80501,USA
Jitlada Restaurant,5233 Sunset Blvd,Los Angeles,CA,90027,USA
Loops,1629 Northwest Blvd,Columbus,OH,43212,USA
Eastside Fish Fry & Grill,2417 E Kalamazoo St,Lansing,MI,48912,USA
Buya Ramen,911 Central Ave ,St Petersburg,FL,33705,USA
Bourr√©e at Boucherie,1510 S Carrollton Ave,New Orleans,LA,70118,USA
Sunset Pointe at Fly Creek Marina,831 N Section St,Fairhope,AL,36532,USA
Blackbrick Chinese and Dim Sum,3451 NE 1st Ave,Miami,FL,33137,USA
Capital City BBQ,1026 W Saginaw St,Lansing,MI,48915,USA
La Panader√≠a,8305 Broadway St,San Antonio,TX,78209,USA
Zaytoon Mediterranean,940 Elmwood Rd,Lansing,MI,48917,USA
The Grilled Cheese Bistro,345 Granby St,Norfolk,VA,23510,USA
La Tostaderia,317 S Broadway,Los Angeles,CA,90013,USA
Meat BBQ,1224 Turner St,Lansing,MI,48906,USA
Fat Olives,2308 Historic Rte 66,Flagstaff,AZ,86004,USA
Horse Thief BBQ,324 S Hill St,Los Angeles,CA,90013,USA
BatterFish food truck,,Santa Monica,CA,,USA
Three's Bar and Grill,1945 S Kihei Rd,Kihei,HI,96753,USA
ediBOL,300 S Santa Fe Ave,Los Angeles,CA,90013,USA
Jessys Tienda y Taqueria,3201 E Ocean View Ave,Norfolk,VA,23518,USA
Maui Fresh Streatery Food Truck,Kaahumanu Ave ,Kahului,HI,96732,USA
Brigit and Bernards Garden Cafe,335 Hoohana St,Kahului,HI,96732,USA
Alkaline Ramen,820 Shirley Ave,Norfolk,VA,23517,USA
Pendulum Fine Meats,820 Shirley Ave,Norfolk,VA,23517,USA
Carib Shack,2272 W Great Neck Road ,Virginia Beach,VA,23451,USA
Maui Brick Oven,1215 S Kihei Rd,Kihei,HI,96753,USA
Wilma and Frieda Cafe,73575 El Paseo Drive ,Palm Desert,CA,92260,USA
Zobo and Meesters,68703 Perez Road ,Cathedral City,CA,92234,USA
Down the Hatch,658 Front St,Lahaina,HI,96761,USA
The Dirty Buffalo,4012 Colley Ave,Norfolk,VA,23508,USA
Frankinbun,540 S Indian Canyon Dr ,Palm Springs,CA,92264,USA
Thai Mee Up Food Truck,591 Haleakala Hwy ,Kahului,HI,96732,USA
Fleetwoods on Front Street,744 Front St,Lahaina,HI,96761,USA
Saigon Noodle and Grill,101 N Bumby Ave ,Orlando,FL,32803,USA
Grill a Burger,73091 Country Club Dr,Palm Desert,CA,92260,USA
Hobo's BBQ Temecula,30590 Rancho California Rd,Temecula,CA,92591,USA
Vincentown Diner,2357 Rte 206 ,Vincentown,NJ,8088,USA
Rocky Hill Inn Eatery and Tavern,137 Washington St ,Rocky Hill,NJ,8553,USA
Bagel Street Grill,660 Plainsboro Rd,Plainsboro Township,NJ,8536,USA
Fat Ones Food Truck,,Orlando,FL,32811,USA
Mrs Potato Restaurant,4550 S Kirkman Rd,Orlando,FL,32811,USA
Shermans Deli and Bakery,73161 Country Club Dr,Palm Desert,CA,92260,USA
Willie‚Äôs Pinchos Food Truck,1718 N Goldenrod Rd,Orlando,FL,32807,USA
The Pastrami Project,825 N. Magnolia Ave ,Orlando,FL,32803,USA
Cuchara Restaurant,214 Fairview St,Houston,TX,77006,USA
The Meatball Stoppe,7325 Lake Underhill Rd,Orlando,FL,32822,USA
Se7en Bites,617 Primrose Dr,Orlando,FL,32803,USA
Irma Southwest Grill,1314 Texas St,Houston,TX,77002,USA
Mora Mora,,Cancun,Quintana Roo,77500,MX
El Rinc√≥n de los Antojos,,Cancun,Quintana Roo,77536,MX
The Surfin Burrito,,Cancun,Quintana Roo,77500,MX
Cool Runnings Jamaican Grill,8270 W Bellfort Blvd,Houston,TX,77071,USA
Cafe Lili Lebanese Grill,5757 Westheimer Rd,Houston,TX,77057,USA
Marini's Empanada House,10001 Westheimer Rd,Houston,TX,77042,USA
Heist Brewery,2909 N Davidson St,Charlotte,NC,28205,USA
Pinchez Tacos Food Truck,,Cancun,Quintana Roo,77510,MX
El Fish Fritanga,,Cancun,Quintana Roo,77500,MX
Q-Shi BBQ and Sushi,1491 Spring Cypress Rd,Spring,TX,77373,USA
F≈´D at Salud,3306a N Davidson St,Charlotte,NC,28205,USA
The Improper Pig,110 S Sharon Amity Rd,Charlotte,NC,28211,USA
Bang Bang Burger,2001 E 7th St,Charlotte,NC,28204,USA
The Irish Rover,2319 Frankfort Ave,St. Louisville,KY,40206,USA
Papi Queso Food Truck,,Charlotte,NC,28202,USA
Swiss Hibiscus,4950 NE 14th Ave,Portland,OR,97211,USA
JJs Red Hots,15105 John J Delaney Dr,Charlotte,NC,28277,USA
Matt's BBQ,4233 N Mississippi Ave,Portland,OR,97217,USA
The Seafood Lady,617 W Oak St,St. Louisville,KY,40203,USA
Dolce & Clementes Italian Gourmet Market,2 N Commerce Square #101,Robbinsville,NJ,8691,USA
Cal Boter,Carrer de Tordera,Barcelona,Catalonia,8012,Spain
Conesa Entrepans,Carrer de la Llibreteria,Barcelona,Catalonia,8002,Spain
Jersey Girl Cafe,731 NJ-33,Hamilton Township,NJ,8619,USA
"Momma's Mustard, Pickles and BBQ",119 S Hurstbourne Pkwy,St. Louisville,KY,40222,USA
Tails and Trotters,525 NE 24th Ave,Portland,OR,97232,USA
The Original Dinerant,300 SW 6th Ave,Portland,OR,97204,USA
Grind Burger Kitchen,829 E Market St,St. Louisville,KY,40206,USA
Gralehaus,1001 Baxter Ave,St. Louisville,KY,40204,USA
Ataula,1818 NW 23rd Pl,Portland,OR,97210,USA
Ps and Qs Market,1301 NE Dekum St,Portland,OR,97211,USA
Vida Cantina,2456 Lafayette Rd,Portsmouth,NH,3801,USA
The Table Cafe,1800 Portland Ave,St. Louisville,KY,40203,USA
Jammin Crepes,20 Nassau St,Princeton,NJ,8542,USA
Tuckaway Tavern & Butchery,58 Rt 27,Raymond,NH,3077,USA
Azla Ethiopian Vegan,3655 S Grand Ave,Los Angeles,CA,90007,USA
Moxy Restaurant,106 Penhallow Street,Portsmouth,NH,3801,USA
Holy Land,920 E Lake St,Minneapolis,MN,55407,USA
Miso Phat Sushi,1279 S Kihei Rd #108,Kihei,HI,96753,USA
Barone's Famous Italian,13726 Oxnard St,Valley Glen,CA,91401,USA
Delancey,5936 Sunset Blvd,Los Angeles,CA,90028,USA
Surly Brewing,520 Malcolm Ave SE,Minneapolis,MN,55414,USA
The Local Craft Food & Drink,150 Giralda Ave,Coral Gables,FL,33134,USA
Harold & Belle's,2920 W Jefferson Blvd,Los Angeles,CA,90018,USA
Star Noodle,286 Kupuohi St,Lahaina,HI,96761,USA
Gandhi Mahal Fine Indian Cuisine,3009 27th Ave S,Minneapolis,MN,55406,USA
Radio Africa & Kitchen,3999 Mission Blvd,San Diego,CA,92109,USA
Belly & Snout,8443 Haven Ave,Rancho Cucamonga,CA,91730,USA
Like poke Food Truck,591 Haleakala Hwy,Kahului,HI,96732,USA
Fat Daddy‚Äôs Smokehouse Barbecue,1913 S Kihei Rd,Kihei,HI,96753,USA
Da Kitchen Cafe,425 Koloa St,Kahului,HI,96732,USA
The Outrigger Pizza Company,1819 S Kihei Rd,Maui,HI,96753,USA
CatHead's BBQ,1665 Folsom St,San Francisco,CA,94103,USA
Gian's Deli,2112 Pacific Ave,Stockton,CA,95204,USA
Smitty‚Äôs Wings & Things,946 N Yosemite St,Stockton,CA,95203,USA
Commonwealth,1022 11th St,Modesto,CA,95354,USA
Miami Smokers Urban Smokehouse,306 NW 27th Ave,Miami,FL,33125,USA
El Figaro,Aguiar No. 18 e/ Pe√±a Pobre y Avenida de las Misiones,Havana,La Habana,10100,Cuba
Nazdarovie,#25 Malec√≥n,Havana,La Habana,,Cuba
La Paila Fonda,esq 25 Vedado,Havana,La Habana,,Cuba
Al Carbon,Aguacate 9 Esq. A Chacon,Havana,La Habana,,Cuba
La Catedral,Calle 8 entre y 5 ta ElVedado,Havana,La Habana,,Cuba
Casa Abel,San Lazaro 319 ,Havana,La Habana,33200,Cuba 
The Herbivorous Butcher,507 1st Ave NE,Minneapolis,MN,55413,USA
Prairie Dogs Hot Dogs & Handcrafted Sausage,610 W Lake St,Minneapolis,MN,55408,USA
La Sandwicherie,229 14th St,Miami Beach,FL,33139,USA
Lou's Beer Garden,7337 Harding Ave,Miami Beach,FL,33141,USA
Hofbrau Beerhall,943 Lincoln Rd,Miami Beach,FL,33139,USA
Taquiza,1506 Collins Ave,Miami Beach,FL,33139,USA
Bauer's 66 1/2,1700 McHenry Ave #66 1/2,Modesto,CA,95350,USA
Souley Vegan,301 Broadway,Oakland,CA,94607,USA
MEAT Eatery and Taproom,88005 Overseas Hwy,Islamorada,FL,33036,USA
Pilot House Marina & Restaurant,13 Seagate Blvd,Key Largo,FL,33037,USA
Food Fix Food Truck,,Modesto,CA,,USA
Clove and Hoof,4001 Broadway,Oakland,CA,94611,USA
Midtown Creperie & Cafe,2319 Pacific Ave,Stockton,CA,95204,USA
Green Turtle Inn,81219 Overseas Hwy,Islamorada,FL,33036,USA
Cosecha,907 Washington St,Oakland,CA,94607,USA
DiGiorgio‚Äôs Cafe Largo,99530 Overseas Hwy,Key Largo,FL,33037,USA
El Nuevo Frutilandia,3077 24th St,San Francisco,CA,94110,USA
Green Papaya Food Truck,,Stockton,CA,,USA
Islamorada Shrimp Shack,81901 Overseas Hwy,Islamorada,FL,33036,USA
The Smoking Swine Food Truck,,Baltimore,MD,,USA
The Fish House,102401 Overseas Hwy ,Key Largo,FL,33037,USA
Vagabond Kitchen & Tap House,672 N Trenton Ave,Atlantic City,NJ,8401,USA
The Skirted Heifer,204 N Tejon St,Colorado Springs,CO,80903,USA
Bub and Pop's,1815 M St NW,Washington,DC,20036,USA
Miss Shirley's Cafe,750 E Pratt Street ,Baltimore,MD,21202,USA
Sam's Bar & Grill,18 S Main St,Pleasantville,NJ,8232,USA
Front Range Barbeque,2330 W Colorado Ave,Colorado Springs,CO,80904,USA
Spice Island Grill,10 N Sierra Madre St,Colorado Springs,CO,80903,USA
Carving Room Kitchen & Bar,300 Massachusetts Ave NW,Washington,DC,20001,USA
Alewife Baltimore,21 N Eutaw St,Baltimore,MD,21201,USA
Mountain Shadows Restaurant,2223 W Colorado Ave,Colorado Springs,CO,80904,USA
Piccini Wood Fired Brick Oven Pizza,1260 West Ave,Ocean City,NJ,8226,USA
Toki Underground,1234 H St NE,Washington,DC,20002,USA
Center Point Barbecue,1212 W Main St,Hendersonville,TN,37075,USA
Mas Tacos Por Favor,732 Mcferrin Ave,Nashville,TN,37206,USA
Bless My Soul Cafe,29 5th St,Eureka,CA,95501,USA
The Blue-Eyed Crab Caribbean Grill & Rum Bar,170 Water St,Plymouth,MA,2360,USA
Rasta Pasta,405 N Tejon St,Colorado Springs,CO,80903,USA
Paravicini's Italian Bistro,2802 W Colorado Ave,Colorado Springs,CO,80904,USA
Northbound Smokehouse and Brewpub,2716 E 38th St,Minneapolis,MN,55406,USA
Unideli,2015 E 24th St,Minneapolis,MN,55404,USA
Pig Latin Food Truck,225 N Nevada Ave,Colorado Springs,CO,80903,USA
Red Planet Diner NEW OWNERS E.T. Diner,1655 W State Route 89A ,Sedona,AZ,86336,USA
Joy Cafe,316 Pharr Rd NE,Atlanta,GA,30305,USA
Axios Estiatorio,3901 Tennyson Street,Denver,CO,80212,USA
Andale Taqueria Y Mercado,7700 Nicollet Ave S,Minneapolis,MN,55423,USA
Bird of Smithfield,26 Smithfield St,London EC1A 9LB,United Kingdom,,United Kingdom
Hook Restaurant,63-65 Parkway,Camden,London ,NW1 7PP,United Kingdom
Grillstock BBQ Smokehosue,41 Triangle W,Bristol BS8 1ER,United Kingdom,,United Kingdom
Shuckers World Famous Raw Bar,91 Water St,Woods Hole,MA,2543,USA
George & The Dragon,813 W 50th St,Minneapolis,MN,55419,USA
Wrecking Bar Brew Pub,292 Moreland Ave NE,Atlanta,GA,30307,USA
Bayport BBQ,328 5th Ave N ,Bayport,MN,55003,USA
Parkside Market,281 Main Street ,Falmouth,MA,2540,USA
Maria Empenada,1298 S Broadway,Denver,CO,80210,USA
Busters on 28th,4204 S 28th Ave,Minneapolis,MN,55406,USA
Driftwood Publick House,39 Court St,Plymouth,MA,2360,USA
The General Muir,1540 Ave Place,Atlanta,GA,30329,USA
Dana's Kitchen,881 Palmer Ave,Falmouth,MA,2540,USA
Pickle Jar Kitchen,170 Main Street ,Falmouth,MA,2540,USA
The Lodge Sasquatch Kitchen,151 N College Ave,Fort Collins,CO,80524,USA
Restaurant 415,415 South Mason Street,Fort Collins,CO,80524,USA
Buttermilk Kitchen,4225 Roswell Road,Atlanta,GA,30342,USA
Fox Bros. Bar-B-Q,1238 DeKalb Avenue Northeast,Atlanta,GA,30307,USA
Cafe Brazil,4408 Lowell Boulevard,Denver,CO,80211,USA
Biju's Little Curry Shop,1441 26th Street,Denver,CO,80205,USA
Folk Art,465 North Highland Avenue Northeast,Atlanta,GA,30307,USA
DAE GEE Korean BBQ,827 Colorado Boulevard,Denver,CO,80206,USA
Fat Choy Asian,595 East Sahara Avenue,Las Vegas,NV,89104,USA
Osaka Japanese Bistro,4205 West Sahara Avenue,Las Vegas,NV,89102,USA
Mert's Heart & Soul,214 North College Street,Charlotte,NC,28202,USA
Cr√™pe Expectations,9500 South Eastern Avenue,Las Vegas,NV,89123,USA
Tub's Fine Chili,4263 Overland Avenue,Culver City,CA,90230,USA
Don Antonio Pizza,309 West 50th Street,New York,NY,10019,USA
Intermezzo Pizzeria,1427 East 10th Street,Charlotte,NC,28204,USA
ChaCha Chili,4625 Valley Boulevard,Los Angeles,CA,90032,USA
Little Jewel of New Orleans,207 Ord Street,Los Angeles,CA,90012,USA
Guy's Las Vegas Kitchen & Bar,3535 S Las Vegas Blvd ,Las Vegas,NV,89109,USA
Those Guys Pies,2916 Lake East Drive,Las Vegas,NV,89117,USA
Chichen Itza Restaurant,3655 S Grand Ave c6,Los Angeles,CA,90007,USA
300 East,300 East Boulevard,Charlotte,NC,28203,USA
Biergarten Los Angeles,206 North Western Avenue,Los Angeles,CA,90004,USA
Krazy Fish,2501 Central Avenue,Charlotte,NC,28205,USA
The Tin Kitchen Food Truck,525 North Tryon Street,Charlotte,NC,28202,USA
Pit Road Bar & Grill,2330 Tipton Drive,Charlotte,NC,28206,USA
Pinkys Westside Grill,1600 West Morehead Street,Charlotte,NC,28208,USA
Asian Experience,215 Center Street,Taft,CA,93268,USA
Pyrenees Cafe,601 Sumner Street,Bakersfield,CA,93305,USA
Athena's Greek Cafe & Bakery,9612 Flushing Quail Road,Bakersfield,CA,93312,USA
La Santisima Gourmet Taco Shop,5932 West Glendale Avenue,Glendale,AZ,85301,USA
Moo Creamery,4885 Truxtun Avenue,Bakersfield,CA,93309,USA
Carluccio's Coal Fired Pizza,1200 New Road,Northfield,NJ,8225,USA
Muertos,1514 Wall Street,Bakersfield,CA,93301,USA
The Wild Thaiger Restaurant,2631 North Central Avenue,Phoenix,AZ,85004,USA
Mama Roomba,1814 Eye Street,Bakersfield,CA,93301,USA
KC Steakhouse,2515 F Street,Bakersfield,CA,93301,USA
Grilled Cheese & Crab Cake Company,55 W Laurel Drive,Somers Point,NJ,8244,USA
Salty's BBQ & Catering,9425 Rosedale Highway,Bakersfield,CA,93312,USA
Sal‚Äôs Gilbert Pizza,1150 South Gilbert Road,Gilbert,AZ,85296,USA
The Anchorage Tavern,823 Bay Avenue,Somers Point,NJ,8244,USA
Tom's Thumb Fresh Market,9393 East Bell Road,Scottsdale,AZ,85260,USA
Paradise Valley Burger Company,4001 East Bell Road,Phoenix,AZ,85032,USA
Andreoli Italian Grocer,8880 East V√≠a Linda,Scottsdale,AZ,85258,USA
Kelsey & Kim's Southern Cafe,201 Melrose Avenue,Atlantic City,NJ,8401,USA
Flying Mango,4345 Hickman Road,Des Moines,IA,50310,USA
Tacopocalypse,407 East 5th Street,Des Moines,IA,50309,USA
24th Street Cafe,1415 24th Street,Bakersfield,CA,93301,USA
George The Chili King Drive-In,5722 Hickman Road,Des Moines,IA,50310,USA
Oyster Creek Inn Restaurant,41 Oyster Creek Road,Leeds Point,NJ,8220,USA
Ernest & Son Meat Market,3305 W Brigantine Ave,Brigantine,NJ,8203,USA
Mi Patria,1410 22nd Street,West Des Moines,IA,50266,USA
Fishermans Market Eugene,830 West 7th Avenue,Eugene,OR,97402,USA
Smokey D‚Äôs BBQ,5055 Northwest 2nd Street,Des Moines,IA,50313,USA
Papa's Soul Food Kitchen & BBQ,400 Blair Boulevard,Eugene,OR,97402,USA
Swallow at the Hollow,5921 York Road,Baltimore,MD,21212,USA
Patton's Restaurant & Catering,1552 East Grand Avenue,Des Moines,IA,50316,USA
Johnny Rads,2108 Eastern Ave, Baltimore,MD,21231,USA
Jimmy's Famous Seafood,6526 Holabird Avenue,Baltimore,MD,21224,USA
Clementine,5402 Harford Road,Baltimore,MD,21214,USA
Pho Lang Thang,114 West Elder Street,Cincinnati,OH,45202,USA
Soup Nation,525 High Street,Eugene,OR,97401,USA
Slainte Irish Pub and Restaurant,1700 Thames Street,Fells Point,MD,21231,USA
The Sandwich League,245 Van Buren Street,Eugene,OR,97402,USA
Grano Pasta Bar,1031 West 36th Street,Hamden,MD,21211,USA
The Brick House Cafe,13458 Reynolds Street,Cable,WI,54821,USA
Cornbread Cafe,1290 West 7th Avenue,Eugene,OR,97402,USA
Gannucci's Italian Market,301 North Central Avenue,Duluth,MN,55807,USA
Delta Diner,14385 County Highway H,Delta,WI,54856,USA
Senate Pub & Restaurant,1100 Summit Place Drive,Blue Ash,OH,45242,USA
Junkyard Extreme Burgers & Brats,95410 Oregon 99,Junction City,OR,97448,USA
Lotus Cafe,145 North Glenwood Street,Jackson,WY,83001,USA
Kounty Quarthouse,4119 County Road K,South Range,WI,54874,USA
Pak's Green Corner,4131 Grand Avenue,Duluth,MN,55807,USA
Island Fryday's,2824 Vine Street,Cincinnati,OH,45219,USA
Casa Razdora,115 Water Street,Boston,MA,2109,USA
Trina's Starlite Lounge,3 Beacon Street,Somerville,MA,2143,USA
Shorty‚Äôs Pizza and Smoked Meat,1015 Tower Avenue,Superior,WI,54880,USA
From Scratch Restaurant,3626 The Barnyard,Carmel,CA,93923,USA
Melt,4165 Hamilton Avenue,Cincinnati,OH,45223,USA
Saus,33 Union Street,Boston,MA,2108,USA
Cafe Genevieve,135 E Broadway,Jackson,WY,83001,USA
Cafe Polonia,611 Dorchester Ave,Boston,MA,2127,USA
Deep Ellum Bar,477 Cambridge Street,Allston,MA,2134,USA
Lone Star Taco Bar,479 Cambridge Street,Boston,MA,2134,USA
The Wild Plum,731 Munras Ave,Monterey,CA,93940,USA
Tavern on 2,5110 East 2nd Street,Long Beach,CA,90803,USA
Nora's Fish Creek Inn,5600 W Hwy 22,Wilson,WY,83014,USA
The Factory Gastrobar,4020 Atlantic Avenue,Long Beach,CA,90807,USA
Pica's Mexican Taqueria,1160 Alpine Lane,Jackson,WY,83001,USA
Little Napoli,Dolores St & 7th Ave,Carmel,CA,93921,USA
Cannery Row Brewing Company,95 Prescott Ave,Monterey,CA,93940,USA
Starling Diner,4114 East 3rd Street,Long Beach,CA,90814,USA
Pinky G's PIzzeria,50 W Broadway,Jackson,WY,83001,USA
Blunch,59 East Springfield Street,Boston,MA,2118,USA
Sidewinders American Grill,945 W Broadway,Jackson,WY,83001,USA
Rosine's Restaurant,434 Alvarado Street,Monterey,CA,93940,USA
Monterey's Fish House,2114 Del Monte Ave,Monterey,CA,93940,USA
Sabroso! Mexican Grill,13129 Harbor Blvd.,Garden Grove,CA,92843,USA
Rutts Hawaiian Cafe & Catering,11707 Washington Place,Los Angeles,CA,90066,USA
Senate Restaurant,1212 Vine Street,Cincinnati,OH,45202,USA
Bakersfield OTR,1213 Vine Street,Cincinnati,OH,45202,USA
Taste of Belgium,1135 Vine Street,Cincinnati,OH,45202,USA
Mike‚Äôs Huli Huli,56-565 Kamehameha Hwy ,Kahuku,HI,96731,USA
Tamarindo Food Truck,,Orange County,CA,,USA
Uahi Island Grill,33 Aulike Street ,Kailua,HI,96734,USA
Dean's Drive Inn,45-270 William Henry Rd ,Kaneohe,HI,96744,USA
Boots & Kimo's Homestyle Kitchen,151 Hekili Street ,Kailua,HI,96734,USA
Oh Mai Sandwich,3425 S State Street ,Salt Lake City,UT,84115,USA
Aristo's Greek Restaurant & Cafe,224 South 1300 East,Salt Lake City,UT,84102,USA
Elena‚Äôs Home of Finest Filipino Foods,94-866 Moloalo Street,Waipahu,HI,96797,USA
Fat Sal's,1300 North Highland Avenue,Los Angeles,CA,90028,USA
Loulou's Griddle in the Middle,Municipal Wharf Number 2 ,Monterey,CA,93940,USA
The Alley Restaurant at Aiea Bowl,99-115 Aiea Heights Drive ,Aiea,HI,96701,USA
Tin Roof Grill,9284 S 700 E ,Sandy,UT,84070,USA
Whisk Gourmet Food,7382 SW 56th Ave ,Miami,FL,33143,USA
Ducks Eatery,351 East 12th Street,New York,NY,10003,USA
Cafe Nooner,409 Opera Alley,Eureka,CA,95501,USA
Maxwell's,357 South Main Street,Salt Lake City,UT,84111,USA
Silver Star Cafe,1825 Three Kings Drive ,Park City,UT,84060,USA
Sammy's Bistro,1890 Bonanza Drive,Park City,UT,84060,USA
Queens Comfort,40-09 30th Avenue,Queens,NY,11103,USA
Pauls Live From New York,604 F Street,Eureka,CA,95501,USA
Bunker Vietnamese,99 SCOTT AVENUE,BROOKLYN,NY,11237,USA
Black Tree,131 Orchard Street,New York,NY,10002,USA
Brindle Room,277 East 10th Street,New York,NY,10009,USA
Brick and Fire Bistro,1630 F St ,Eureka,CA,95501,USA
Bad Boy Burrito,1220 1/2 Simonton Street,Key West,FL,33040,USA
Garbo's Grill,409 Caroline Street,Key West,FL,33040,USA
Dj's Clam Shack,629 Duval Street,Key West,FL,33040,USA
Sakaya Kitchen,3401 N Miami Avenue,Miami,FL,33127,USA
Latin House Burger & Taco Bar,8695 SW 124th Ave,Miami,FL,33183,USA
The Federal,5132 Biscayne Blvd,Miami,FL,33137,USA
Blue Collar,6730 Biscayne Boulevard,Miami,FL,33138,USA
Humboldt Sweets,399 Main Street ,Ferndale,CA,95536,USA
Loleta Cheese Factory,252 Loleta Drive,Loleta,CA,95551,USA
Clendenens Cider Works,96 12th Street ,Fortuna,CA,95540,USA
Ferndale Meat Co.,376 Main ,Ferndale,CA,95536,USA
Hotel Ivanhoe,315 Main Street,Ferndale,CA,95536,USA
The Grilled Cheeserie Food Truck,,Nashville,TN,,USA
Blue Koi,10581 Mission Road,Leawood,KS,66206,USA
Cafe Nonna,4427 Murphy Road,Nashville,TN,37209,USA
Phat Bites,2730 Lebanon Pike,Nashville,TN,37214,USA
Potpie,904 Westport Road,Kansas City,MO,64111,USA
55 South,403 Main Street,Franklin,TN,37064,USA
Tiki Bar,,Cabo San Lucas,Baja California,23400,Mexico
Soloman's Landing Restaurant,Paseo de La Marina Centro,Cabo San Lucas,Baja California,23450,Mexico
Asi y Asado,Cabo San Lucas,Cabo San Lucas,Baja California,23450,Mexico
The Tin Shed Garden Cafe,1438 Northeast Alberta Street,Portland,OR,97211,USA
B.B.'s Lawn Side Bar B-Q,1205 East 85th Street,Kansas City,MO,64131,USA
Nexus Brewery and Restaurant,4730 Pan American Freeway,Albuquerque,NM,87109,USA
The Cube BBQ,1520 Central Avenue Southeast ,Albuquerque,NM,87123,USA
Cupinis,1809 Westport Road,Kansas City,MO,64111,USA
Succotash,2601 Holmes Street,Kansas City,MO,64108,USA
Back Street Bistro,513 Camino de Los Marquez ,Santa Fe,NM,87505,USA
Danny Edward's Blvd BBQ,2900 Southwest Boulevard,Kansas City,MO,64108,USA
Jambo Cafe New Mexico,2010 Cerrillos Road ,Santa Fe,NM,87505,USA
Slow Roasted Bocadillos,200 Lomas Blvd NW ,Albuquerque,NM,87102,USA
Frank's Noodle House,822 Northeast Broadway Street,Portland,OR,97232,USA
Torinos at Home,7600 Jefferson Street ,Albuquerque,NM,87109,USA
Casa Chimayo,409 W Water Street ,Santa Fe,NM,87501,USA
Golden Crown Panaderia,1103 Mountain Road NW ,Albuquerque,NM,87102,USA
PDX Six Seven One Food Truck,5013 NE 42nd Avenue,Portland,OR,97213,USA
A Taste of Home Cooking,12365 W 58th Ave,Arvada,CO,,USA
Senor Sisig Food Truck,,San Francisco,CA,94115,USA
The Front Porch,65 29th Street,San Francisco,CA,94110,USA
Koja Kitchen Food Truck,,San Francisco,CA,94123,USA
Millers East Coast Deli,1725 Polk Street,San Francisco,CA,94109,USA
The Country Cat,7937 Southeast Stark Street,Portland,OR,97215,USA
The Refuge,963 Laurel Street,San Carlos,CA,94070,USA
Industrial Cafe & Saloon,2572 Northwest Vaughn Street,Portland,OR,97210,USA
Show Dogs,1020 Market Street,San Francisco,CA,94102,USA
Crest Cafe,425 Robinson Avenue,San Diego,CA,92103,USA
Edelweiss Sausage & Delicatessen,3119 Southeast 12th Avenue,Portland,OR,97202,USA
Pica Pica Maize Kitchen,401 Valencia Street,San Francisco,CA,94103,USA
Nopalito on broderick,306 Broderick Street,San Francisco,CA,94117,USA
Spiritos Italian Diner,2508 El Camino Real,Carlsbad,CA,92008,USA
Shirley's Tippy Canoe,28242 E Historic Columbia River Hwy ,Troutdale,OR,97060,USA
OB Noodle House,2218 Cable Street,San Diego,CA,92107,USA
Chino Bandido,310 W Bell Road ,Phoenix,AZ,85023,USA
Brint's Diner NEW OWNERS,4834 East Lincoln Street ,Wichita,KS,67218,USA
Fish Tale Brewpub,515 Jefferson Street Southeast,Olympia,WA,98501,USA
Crockett's Public House,118 E Stewart Ave,Puyallup,WA,98372,USA
Eastside Market Italian Deli,1013 Alpine Street,Los Angeles,CA,90012,USA
The Parks Finest BBQ,1267 West Temple Street,Los Angeles,CA,90026,USA
Haggo's Organic Taco,1302 N Coast Hwy 101 Ste 101 ,Encinitas,CA,92024,USA
The Duce,525 South Central Avenue,Phoenix,AZ,85004,USA
Geechee Girl Rice Cafe,6825 Germantown Avenue,Philadelphia,PA,19119,USA
Black Pelican Seafood Company,3848 North Virginia Dare Trail,Kitty Hawk,NC,27949,USA
The Jamaican Jerk Hut,1436 South Street,Philadelphia,PA,19146,USA
DeFalco's Italian Deli,2334 North Scottsdale Road,Scottsdale,AZ,85257,USA
Cora Fayes Cafe,15395 E. Colfax Avenue ,Aurora,CO,80011,USA
Standard Tap,901 North 2nd Street,Philadelphia,PA,19123,USA
Prohibition,504 East Colfax Avenue,Denver,CO,80220,USA
Curry Corner,1212 East Apache Boulevard,Tempe,AZ,85281,USA
Bludso's BBQ,811 S Long Beach Blvd,Compton,CA,90221,USA
Hops and Pie,3920 Tennyson Street,Denver,CO,80212,USA
Percy Street Barbecue,900 South Street,Philadelphia,PA,19147,USA
Nopalito on 9th,1224 9th Avenue,San Francisco,CA,94122,USA
Barrio Cafe,2814 N 16th Street,Phoenix,AZ,85006,USA
St. Francis,111 East Camelback Road,Phoenix,AZ,85012,USA
South Philadelphia Tap Room,1509 Mifflin Street,Philadelphia,PA,19145,USA
Atomic Cowboy,3237 East Colfax Avenue,Denver,CO,80206,USA
Perk Eatery,6501 East Greenway Parkway,Scottsdale,AZ,85254,USA
Sidecar Bar and Grille,2201 Christian Street,Philadelphia,PA,19146,USA
Highland Tavern,3400 Navajo Street,Denver,CO,80211,USA
Dirty Oscars Annex,2309 6th Avenue,Tacoma,WA,98403,USA
Chomp Chomp Nation (Food Truck),5755 E La Palma Ave,Anaheim,CA,92607,USA
Beer Belly,532 South Western Avenue,Los Angeles,CA,90020,USA
The Golden State Cafe,426 North Fairfax Avenue,Los Angeles,CA,90036,USA
Crown Bar,2705 6th Avenue,Tacoma,WA,98405,USA
Tioli's Crazee Burger,3993 30th St ,San Diego,CA,,USA
Citrus Breakfast and Lunch,2265 W Great Neck Road ,Virginia Beach,VA,23451,USA
The Stockyards Smokehouse and Larder,699 Saint Clair Avenue West,Toronto,ON,M6C 1B2,Canada
The Lakeview Restaurant,1132 Dundas Street West,Toronto,ON,M6J 2Y2,Canada
The Ace Toronto,231 Roncesvalles Avenue,Toronto,ON,M6R 2L6,Canada
The Nook,492 Hamline Avenue South ,St. Paul,MN,55116,USA
Pies n Thighs,166 South 4th Street,Brooklyn,NY,11211,USA
Bruno's European Restaurant,10902 Bridgeport Way SW,Lakewood,WA,98499,USA
Taste of Europe Restaurant Russian,1901 West Pioneer Parkway ,Arlington,TX,76013,USA
Marie's Italian Specialties,641 Shunpike Rd ,Chatham,NJ,7928,USA
Darbys Cafe,600 Franklin St ,Olympia,WA,98501,USA
Jimmy's Diner,577 Union Ave ,Brooklyn,NY,11211,USA
The Smoke Joint,87 S Elliott Place ,Brooklyn,NY,11217,USA
Coastal Cravings,1209 Duck Road,Duck,NC,27949,USA
La Isla Restaurant,104 Washington Street ,Hoboken,NJ,7030,USA
Chili Johns,2018 West Burbank Boulevard,Burbank,CA,91506,USA
Rosedale Diner,1164 Yonge Street,Toronto,ON,M4W,USA
Caplansky's Delicatessen,356 College Street,Toronto,ON,M5T,USA
Hey Meatball,719 College Street,Toronto,ON,M6G,USA
Espinos Mexican Bar & Grill,17409 Chesterfield Airport Road ,Chesterfield,MO,63005,USA
Yankee Lobster Fish Market,300 Northern Avenue,Boston,MA,2210,USA
Edgewood Cafe,1864 Broad Street ,Cranston,RI,2905,USA
Aunt Carries Seafood Restaurant,1240 Ocean Road ,Narragansett,RI,2882,USA
Opal Thai Food,1030 Smith Street ,Honolulu,HI,96817,USA
Three Angels Diner,2617 Broad Ave ,Memphis,TN,38112,USA
Johnny's BBQ,5959 Broadmoor ,Mission,KS,66201,USA
Italian Corner,10 Boyd Avenue East ,Providence,RI,2914,USA
The Elegant Farmer,262 S Highland Street ,Memphis,TN,38111,USA
Fresh Catch Kaneohe,45-1118 Kamehameha Hwy,Kaneohe,HI,96744,USA
Guerrilla Street Food Truck,,St. Louis,MO,,USA
Anthonys Seafood,963 Aquidneck Avenue ,Middletown,RI,2842,USA
Big Wave Shrimp,66-521 Kamehameha Hwy ,Haleiwa,HI,96712,USA
South of Beale,361 South Main Street ,Memphis,TN,38103,USA
Mediterraneo Caffe,134 Atwells Avenue ,Providence,RI,2903,USA
Angelos Civita Farnese Restaurant,141 Atwells Ave,Providence,RI,2903,USA
Tupelo,1193 Cambridge Street ,Cambridge,MA,2139,USA
Patti's Pierogis,1019 S Main Street ,Fall River,MA,2724,USA
Outer Banks Brewing Station,600 South Croatan Highway ,Kill Devil Hills,NC,27948,USA
Brine and Bottle,7531 S Virginia Dare Trail ,Nags Head,NC,27959,USA
Guys American Kitchen and Bar,220 W 44th Street ,New York,NY,10036,USA
Kitty Hoynes,301 West Fayette Street ,Syracuse,NY,13202,USA
Pastabilities,311 South Franklin Street ,Syracuse,NY,13202,USA
Funk N Waffles,307-313 S Clinton Street,Syracuse,NY,13202,USA
Empire Brewing Company,120 Walton Street ,Syracuse,NY,13202,USA
Evas European Sweets,1305 Milton Avenue ,Syracuse,NY,13204,USA
Memphis BBQ Co,709 Desoto Cove ,Horn Lake,MS,38637,USA
Byblos Mediterranean Cafe,223 North Clinton Street ,Syracuse,NY,13202,USA
90 Miles Cuban Cafe,3101 N. Clybourn ,Chicago,IL,60618,USA
Rizzos Diner,106 G.E. Patterson,Memphis,TN,38103,USA
Davis' Pub,400 Chester Avenue ,Annapolis,MD,21403,USA
Sweet Home Waimanalo,41-1025 Kalanianaole Highway ,Waimanalo,HI,96795,USA
bopNgrill,6604 N Sheridan Road ,Chicago,IL,60626,USA
REX Italian Foods,4431 N Harlem Ave ,Norridge,IL,60706,USA
Heeia Kea Pier General Store and Deli,46-499 Kamehameha HWY.,Kaneohe,Hawaii,96744,USA
Ortegaz Southwestern Grill and Wine Bar,201 Sir Walter Raleigh Street,Manteo,NC,27954,USA
Camilles on Wheels Food Truck,,Kailua,HI,96814,USA
Chicago Brauhaus,4732 N Lincoln Ave ,Chicago,IL,60625,USA
Memphis Street Cafe,2476 Memphis Street ,Hernando,MS,38632,USA
Tortugas Lie,3016 South Virginia Dare Trail ,Nags Head,NC,27959,USA
Weeping Radish Farm,6810 Caratoke Hwy.,Grandy,NC,27939,USA
Boston Burger Company,37 Davis Square ,Somerville,MA 02144,,USA
Yayo Taco,4632 S. Maryland Pkwy #18 ,Las Vegas,NV 89119,,USA
Jawaiian Irie Jerk Restaurant,3574 Waialae Ave,Honolulu,HI,96816,USA
Hopleaf Bar,5148 North Clark Street,Chicago,IL,60640,USA
Foreign and Domestic,306 E. 53rd Street ,Austin,TX,78751,USA
Afrah,314 E. Main Street,Richardson,TX,75081,USA
Bachi Burger,470 E. Windmill Lane,Las Vegas,NV,89123,USA
Dressel's Public House,419 N Euclid Avenue,St. Louis,MO,63108,USA
Hwy 61 Roadhouse,34 South Old Orchard Avenue ,Webster Groves,MO,63119,USA
The Shaved Duck,2900 Virginia Avenue ,St. Louis,MO,63118,USA
Anthonino's Taverna,2225 Macklind Avenue ,St. Louis,MO,63110,USA
Forte European Tapas Bar and Bistro,4180 South Rainbow Boulevard ,Las Vegas,NV,89103,USA
Moondoggies Bar and Naked City Pizza,3240 Arville Street,Las Vegas,NV,89102,USA
Noble Pig Austin,12233 620 N. Austin,Austin,TX,78750,USA
John Mull's Meats and Road Kill Grill,3730 Thom Blvd ,Las Vegas,NV,89130,USA
Angelas Cafe Restaurant,131 Lexington Street,Boston,MA,2128,USA
Italian Express Pizzeria,336 Sumner Street,Boston,MA,2128,USA
Cutty Foods,284 Washington Street ,Brookline,MA,2445,USA
Counter Cafe,626 North Lamar Boulevard ,Austin,TX,78703,USA
Marla's Carribean Cuisine,3761 Bloomington Ave ,Minneapolis,MN,55407,USA
Lola's St. Louisiana Kitchen,241 W. Charleston ,Las Vegas,NV,89102,USA
Pete's Breakfast House Restaurant,2055 E Main Street ,Ventura,CA,93001,USA
Broders Cucina Italiana,2308 West 50th Street,Minneapolis,MN,55410,USA
Broders' Pasta Bar,5000 Penn Avenue South,Minneapolis,MN,55410,USA
Luke's Inside Out,1109 South Lamar Boulevard ,Austin,TX,78704,USA
Monument Cafe,500 S Austin Avenue ,Georgetown,TX,78627,USA
Pizzeria Lola,5557 Xerxes Ave. S. ,Minneapolis,MN,55410,USA
Pepe's and Mito's,2911 Elm Street ,Dallas,TX,75226,USA
Savoy Cafe and Deli,24 W. Figueroa Street ,Santa Barbara,CA,93101,USA
Smack Shack,1029 Marshall Street NE ,Minneapolis,MN,55413,USA
Defonte's of Brooklyn,379 Columbia Street,Brooklyn,NY,,USA
Meat and Bread,370 Cambie Stree,Vancouver,BC,V6S 2C2,Canada
Nortons Pastrami,18 West Figueroa Street ,Santa Barbara,CA,93101,USA
Sidecar,560 5th Avenue ,Brooklyn,NY,11215,USA
Nye's Polonaise,112 East Hennepin Avenue,Minneapolis,MN,55414,USA
The Kitchen,529 South A Street,Oxnard,CA,93030,USA
Mac's Fish and Chips,503 State Street,Santa Barbara,CA,93101,USA
Cane Rosso,2612 Commerce Street,Dallas,TX,75226,USA
Lito's Take Out,514 E Haley Street,Santa Barbara,CA,93103,USA
Chop House Burgers,2502 Little Rd,Arlington,TX,76016,USA
Pecan Lodge,2702 MAIN STREET,DALLAS,TX,75226,USA
Maple and Motor,4810 Maple Avenue ,Dallas,TX,75219,USA
Smalley's Caribbean Barbeque,423 Main Street South,Stillwater,MN,55082,USA
Traffic Jam and Snug,511 W. Canfield Street,Detroit,MI,48201,USA
Jethro's Fine Grub,3420 Dunbar Street Vancouver,Vancouver,BC,V6S 2C2,Canada
Webberville Brewery and Pub,1093 Highview Drive,Webberville,MI,48892,USA
Danny's All American Diner,4406 N Falkenburg Road ,Tampa,FL,33610,USA
Leaping Lizards Cafe,4408 Shore Drive ,Virginia Beach,VA,23455,USA
Rigoletto Italian Bakery and Cafe,2181 Upton Drive ,Virginia Beach,VA,23454,USA
Supino Pizzeria,2457 Russell Street ,Detroit,MI,48207,USA
R and R Taqueria,7894 Washington Blvd ,Elkridge,MD,21075,USA
Boulevard Diner,1660 Merritt Boulevard,Dundalk,MD,21222,USA
Sip and Bite Restaurant,2200 Boston Street ,Baltimore,MD,21231,USA
Joe Squared,33 W North Ave,Baltimore,MD,21201,USA
Galway Bay,63 Maryland Ave ,Annapolis,MD,21401,USA
Dixie Supply Bakery and Cafe,62 State Street ,Charleston,SC,29401,USA
Perfectly Frank's,118 North Main Street ,Summerville,SC,29483,USA
Tattooed Moose,4845 Chateau Ave,North Charleston,SC,29405,USA
Fuel Charleston,211 Rutledge Avenue ,Charleston,SC,29403-5822,USA
The Early Bird Diner,1644 Savannah Highway ,Charleston,SC,29407,USA
The Glass Onion,1219 Savannah Hwy. ,Charleston,SC,29407,USA
Rincon Criollo,40-09 Junction Blvd ,New York,NY,11372,USA
Defonte's Sandwich Shop,261 3rd Avenue ,New York,NY,10010,USA
Gazala's Place,447 Amsterdam Avenue,NY,NY,10024,USA
The Redhead Restaurant,349 East 13th Street ,New York,NY,10003,USA
Mama's Food Shop,200 East 3rd Street ,New York,NY,10009,USA
John's of 12th Street,302 East 12th Street,New York,NY,10003,USA
The Broken Record Bar,1166 Geneva Avenue ,San Francisco,CA,94112,USA
Get Fresh Cafe,2500 Church Street,Norfolk,VA,23504,USA
Tomahawk Restaurant,1550 Philip Avenue North Vancouver,Vancouver,BC,V7P 2V8,Canada
Red Wagon Cafe,2296 East Hastings Street Vancouver,Vancouver,BC,V5L 1V4,Canada
Save-on-Meats,43 West Hastings Street Vancouver,Vancouver,BC,V6B 1G4,Canada
Peaceful Restaurant,532 West Broadway Vancouver,Vancouver,BC,V5Z 1E9,Canada
Polish Village Cafe,2990 Yemans Street ,Hamtramck,MI,48212,USA
Union Wood Shop,18 South Main Street ,Clarkston,MI,48346,USA
Clarkston Union Bar and Kitchen,54 S Main Street,Clarkston,MI,,USA
Falconetti's,1812 Commercial Drive Vancouver,Vancouver,BC,V5N 4A5,Canada
Fresh Local Wild Food Truck,W Hastings and Burrard Street Vancouver,Vancouver,BC ,V6E 1V3,Canada
Whitner's Barbecue,869 Lynnhaven Pkwy ,Virginia Beach,VA,23452,USA
The Beach Pub,1001 Laskin Road ,Virginia Beach,VA,23451,USA
Moseberth's Chicken,1505 Airline Blvd ,Portsmouth,VA,23707,USA
Harvey's Hot Dogs,3205 Stamford Road ,Portsmouth,VA,23703,USA
Flip Flops Grill and Chill,2217 Upton Drive ,Virginia Beach,VA,23454,USA
Panozzo's Italian Market,1303 South Michigan Avenue ,Chicago,IL,60605,USA
Nana Organic,3267 S Halsted Street ,Chicago,IL,60608,USA
DMK Burger Bar,2954 N Sheffield Ave ,Chicago,IL,60657,USA
Chuck's Southern Comforts Cafe,6501 W 79th Street ,Burbank,IL,60459,USA
Chilam Balam,3023 N Broadway Street ,Chicago,IL,60657,USA
Big & Littles,860 N. New Orleans,Chicago,IL.,60610,USA
The Old Coffee Pot Restaurant,714 Saint Peter Street,New Orleans,LA,70116,USA
Tampa Taco Bus,913 E Hillsborough Ave,Tampa,FL,33603,USA
Tampa Bay Brewing Company,1600 E 8th Ave,Tampa,FL,33605,USA
Munch's Sundries and Restaurant,3920 6th Street S,St. Petersburg,FL,33705,USA
Jose's Real Cuban Food,8799 Cortez Road W,Bradenton,FL,34210,USA
Irazu,1865 N Milwaukee Ave ,Chicago,IL,60647,USA
Garifuna Flava,2516 W 63rd Street ,Chicago,IL,60629,USA
California Tacos To Go,1450 Skipper Road,Tampa,FL,33613,USA
The Barking Dog Cafe,115 E 49th Street ,Indianapolis,IN,46205,USA
Aunt Mary's Cafe,4307 Telegraph Avenue ,Oakland,CA,94609,USA
Zydecos,11 E Main Street ,Mooresville,IN,46158,USA
Zest-Exciting Food Creations,1134 E 54th Street ,Indianapolis,IN,46220,USA
The Tamale Place,5242 Rockville Road ,Indianapolis,IN,46224,USA
Steer-In Restaurant,5130 E 10th Street ,Indianapolis,IN,46219,USA
The Magnolia Pancake Haus,606 Embassy Oak ,San Antonio,TX,78216,USA
Taco Taco Cafe,145 E. Hildebrand ,San Antonio,Texas,78212,USA
Moroccan Bites,5714 Evers Road ,San Antonio,TX,78238,USA
El Bohio Restaurant,1127 Harry Wurzbach Road ,San Antonio,TX,78209,USA
Dough Pizzeria Napoletana,6989 Blanco Road ,San Antonio,TX,78213,USA
Bun 'n' Barrel,1150 Austin Hwy ,San Antonio,TX,78209,USA
Beto's on Broadway,8142 Broadway Street ,San Antonio,TX,78209,USA
Katie's Restaurant,3701 Iberville Street ,New Orleans,LA,70119,USA
Jerseys Cafe,820 E 116th Street ,Carmel,IN,46032,USA
Sage General Store,2420 Jackson Avenue ,Long Island City,NY,11101,USA
3 Sisters Cafe,6360 Guilford Ave ,Indianapolis,IN,46220,USA
The Golden Bear,2326 K Street,Sacramento,CA,95816,USA
QFanatic BBQ and Grill,180 Miller Road,Champlin,MN,55316,USA
Elk Public House,1931 W Pacific Ave ,Spokane,WA,99201,USA
Sunflower Caffe Espresso and Wine Bar,421 1st Street W ,Sonoma,CA,95476,USA
Jimtown Store,6706 California 128 ,Healdsburg,CA,95448,USA
HRD Coffee Shop,521 3rd Street ,San Francisco,CA,94107,USA
Catelli's Restaurant,21047  Ave ,Geyserville,CA,95441,USA
Meal Ticket,1235 San Pablo Ave ,Albany,CA,94706,USA
Maui's Dog House,806 New Jersey Ave ,Wildwood,NJ,8260,USA
Tocabe,3536 W 44th Ave ,Denver,CO,80211,USA
The Sink,1165 13th Street ,Boulder,CO,80302,USA
The Bagel Deli,6439 E Hampden Ave ,Denver,CO,80222,USA
Steuben's,523 E 17th Ave ,Denver,CO,80203,USA
Sam's No 3,1500 Curtis Street ,Denver,CO,80202,USA
Lauer Krauts,26 S 6th Ave Brighton,Brighton,CO,80601,USA
Foolish Craig's Cafe,1611 Pearl Street ,Boulder,CO,80302,USA
Bang!,3472 W 32nd Ave ,Denver,CO,80211,USA
Brats Brothers,13355 Ventura Blvd. ,Sherman Oaks,CA,91423,USA
Germaine‚Äôs Luau,91-119 Olai Street ,Kapolei,HI,96707,USA
Mulberry Italian Ristorante,64 Jackson Ave ,Lackawanna,NY,14218,USA
Sammy's Food Services and Deli,3000 Elysian Fields Ave ,New Orleans,LA,70122,USA
Tortilleria Nixtamal,104-05 47th Ave Corona,Corona,NY,11368,USA
The Sparrow Tavern,24-01 29th Street New York,New York,NY,11102,USA
The Pit Stop,1706 Sunrise Hwy Merrick,Merrick,NY,11566,USA
Hildebrandts,84 Hillside Ave,Williston Park,NY,11596,USA
Bens Best Kosher Deli,96-40 Queens Blvd. ,Rego Park,NY,,USA
Mahonys PO Boy Shop,3454 Magazine Street ,New Orleans,LA,70115,USA
Louie and the Red Head Lady,2820 East Causeway Approach ,Mandeville,La,70448,USA
L. A. Pines Cafe,1061 Robert Blvd ,Slidell,LA,70458,USA
Worth Our Weight,1021 Hahman Drive ,Santa Rosa,CA,95405,USA
Gatsby's Diner,2598 Alta Arden Expy ,Sacramento,CA,95825,USA
Dad's Kitchen,2968 Freeport Blvd ,Sacramento,CA,95818,USA
Merritt Canteen,4355 Main Street ,Bridgeport,CT,6606,USA
Waddell's Neighborhood Pub,4318 S Regal Street ,Spokane,WA,99223,USA
The Pineville Tavern,413 Pineville Road ,New Hope,PA,18938,USA
Quahog's Seafood Shack,206 97th Street ,Stone Harbor,NJ,8247,USA
Putah Creek Cafe,210 Railroad Ave ,Winters,CA,95694,USA
Picabu Neighborhood Bistro,901 W 14th Ave ,Spokane,WA,99203,USA
Memphis Taproom,2331 E Cumberland Street ,Philadelphia,PA,19125,USA
Jimmy's Down The Street Cafe,1613 E Sherman Ave ,Coeur d'Alene,ID,83814,USA
Honey's Sit 'n Eat,800 N 4th Street ,Philadelphia,PA,19123,USA
Hills' Restaurant and Lounge,401 W Main Ave ,Spokane,WA,99201,USA
Good Dog Bar,224 S 15th Street ,Philadelphia,PA,19102,USA
George's Place,301 Beach Ave ,Cape May,NJ,8204,USA
Chaps Coffee Co,4235 S Cheney  Road ,Spokane,WA,99224,USA
Capone's Pub and Grill,751 N 4th Street ,Coeur d'Alene,ID,83814,USA
10th Ave Burrito Co,817 Plaza Belmar,Belmar,NJ,7719,USA
General Store and Post Office Tavern,6 Post Office Road ,Silver Spring,MD,20910,USA
Corey's Catsup and Mustard,623 Main Street ,Manchester,CT,6040,USA
Anchor Bar and Grill,413 Tower Ave ,Superior,WI,54880,USA
Northern Waters Smokehaus,394 S Lake Ave ,Duluth,MN,55802,USA
At Saras Table Chester Creek Cafe,1902 E 8th Street ,Duluth,MN,55812,USA
Colossal Cafe,1340 Grand Ave ,St. Paul,MN,55105,USA
Duluth Grill,118 S 27th Ave W ,Duluth,MN,55806,USA
Gordy's Hi-Hat,415 Sunnyside Drive ,Cloquet,MN,55720,USA
Kramarczuk Sausage Company,215 E Hennepin Ave ,Minneapolis,MN,55413,USA
The Blue Door Pub,1811 Selby Ave ,Paul,MN,55104,USA
Becky's Diner,390 Commercial Street ,Portland,ME,4101,USA
Bob's Clam Hut,315 US Route 1 ,Kittery,ME,3904,USA
Maine Diner,2265 Post Road ,Wells,ME,4090,USA
Porthole Restaurant,20 Custom House Wharf ,Portland,ME,4101,USA
The Lobster Shanty,25 Front Street ,Salem,MA,1970,USA
Rino's Place,258 Saratoga Street ,Boston,MA,2128,USA
Greek Corner,2366 Massachusetts Ave ,Cambridge,MA,2140,USA
Tune Inn,331 Pennsylvania Ave SE ,Washington,DC,20003,USA
Tortilla Cafe,210 7th Street SE ,Washington,DC,20003,USA
Oohhs and Aahhs Soul Food,1005 U Street NW ,Washington,DC,20001,USA
Metro 29 Diner,4711 Lee Hwy ,Arlington,VA,22207,USA
La Caraquena,300 W Broad Street ,Church,VA,22046,USA
Comet Ping Pong,5037 Connecticut Ave NW ,Washington,DC,20008,USA
Murphy's Bar and Grill,2 Merchant St ,Honolulu,HI,96813,USA
Smokin Guns BBQ and Catering,1218 Swift Avenue ,Kansas City,MO,64116,USA
RJ's Bob-Be-Que,5835 Lamar Ave ,Mission,KS,66202,USA
Woodyard BBQ,3001 Merriam Lane ,Kansas City,KS,66106,USA
The Brick,1727 McGee Street ,Kansas City,MO,64108,USA
Swagger,8431 Wornall Road ,Kansas City,MO,64114,USA
Jamaica Way,900 Rosa L Parks Blvd ,Nashville,TN,37208,USA
Happy Gillis Cafe and Hang Out,549 Gillis Street ,Kansas City,MO,64106,USA
Savarino's Cucina,2121 Belcourt Ave ,Nashville,TN,37212,USA
Martin's BBQ Joint,7238  Road ,Nolensville,TN,37135,USA
Cafe Rakka,71 New Shackle Island Rd ,Hendersonville,TN,37075,USA
Bro's Cajun Cuisine,3214 Charlotte Ave ,Nashville,TN,37209,USA
Athens Family Restaurant,2526 Franklin Pike ,Nashville,TN,37204,USA
Arnold's Country Kitchen,605 8th Ave S ,Nashville,TN,37203,USA
Pier 23 Cafe,23 Pier ,Francisco,CA,94124,USA
Wallace Station,3854 Old  Pike ,Versailles,KY,40383,USA
Virgil's Cafe,710 Fairfield Ave ,Bellevue,KY,41073,USA
The Parkette Drive-in,1230 E. New Circle Road,Lexington,KY,40505,USA
Terry's Turf Club,4618 Eastern Ave ,Cincinnati,OH,45226,USA
Rick's White Light Diner,114 Bridge Street ,Frankfort,KY,40601,USA
J.J. McBrewster's American Smokehouse,3101 Clays Mill Road ,Lexington,KY,40503,USA
Blue Ash Chili Restaurant,9525 Kenwood Rd Ste 5 ,Blue Ash,OH,45242,USA
Southern Soul BBQ,2020 Demere Road ,St Simons,GA,31522,USA
Singletons Seafood Shack,4728 Ocean Street ,Jacksonville,FL,32233,USA
Rudy's Can't Fail Cafe,4081 Hollis Street,Emeryville,CA,94608,USA
Paul's Coffee Shop,16947 Bushard Street,Fountain Valley,CA,92708,USA
North End Caffe,3421 N Highland Ave,Manhattan Beach,CA,90266,USA
Naglee Park Garage,505 E San rlos Street,San Jose,CA,95112,USA
Metro Diner,3302 Hendricks Ave,Jacksonville,FL,32207,USA
Mama Cozza's Italian Restaurant,2170 W Ball Road,Anaheim,CA,92804,USA
JAX Truckee Diner,10144 W River Street,Truckee,CA,96161,USA
Gloria's Cafe,10227 Venice Blvd,Los Angeles,CA,90034,USA
Galewood Cookshack,2135 N Milwaukee Ave,Chicago,IL,60647,USA
Fox Restaurant,3580 St Johns Ave ,Jacksonville,FL,32205,USA
Don Chow Tacos Food Truck,11500 Tennessee Ave ,Los Angeles,CA,90064,USA
Dish Cafe and Catering,855 Mill Street,Reno,NV,89502,USA
Culhane's Irish Pub,967 Atlantic Blvd ,Atlantic Beach,FL,32233,USA
Blackwater Grill,260 Redfern Village,St. Simons Island,GA,31522,USA
At Last Cafe,204 Orange Ave ,Long Beach,CA,90802,USA
Aldo's Harbor Restaurant,616 Atlantic Ave ,Santa Cruz,CA,95062,USA
13 Gypsies,887 Stockton Street ,Jacksonville,FL,32204,USA
Boondocks BBQ and Grill,4653 Ohio 60 ,McConnelsville,OH,43756,USA
Rick and Ann's Restaurant,2922 Domingo Ave ,Berkeley,CA,94705,USA
900 Grayson,900 Grayson Street ,Berkeley,CA,94710,USA
Burger Me,10418 Donner Pass Rd ,Truckee,CA,96161,USA
Cafe Citti,9047  Hwy ,Kenwood,CA,95452,USA
Gold 'N Silver Inn,790 W 4th Street ,Reno,NV,89503,USA
St. Louis' Basque Corner,301 E. 4th Street ,Reno,NV,89512,USA
Schellville Grill,22900 Broadway ,Sonoma,CA,95476,USA
Napa Rose,1600 Disneyland Drive ,Anaheim,CA,92802,USA
Pawley's Front Porch,827 Harden Street ,Columbia,SC,29205,USA
South 21 Drive-In,3101 E Independence Blvd ,Charlotte,NC,28205,USA
Taste of Peru,6545 N Clark Street ,Chicago,IL,60626,USA
Landmark Restaurant Diner,4429 Central Ave ,Charlotte,NC,28205,USA
Farmer's Shed,2514 Augusta Hwy ,Lexington,SC,29072,USA
Dish,1220 Thomas Ave ,Charlotte,NC,28205,USA
Cabo Fish Taco,3201 N Davidson Street ,Charlotte,NC,28205,USA
Elf's Den Restaurant Lounge,Mi 14 Richardson Hwy ,North Pole,AK,99705,USA
Country Cafe,235 North Santa Claus Lane ,North Pole,AK,99705,USA
Tee Off Bar and Grill,3129 Clement Street ,Francisco,CA,,USA
The Cookie Jar,1006 Cadillac Ct ,Fairbanks,AK,,USA
Silver Gulch Restaurant,2195 Old Steese Hwy N ,Fox,AK,,USA
The Little Depot Diner,1 Railroad Avenue ,Peabody,MA,1961,USA
Santa Cruz Diner,909 Ocean Street ,Santa Cruz,CA,95060,USA
ParkView Nite Club,1261 West 58th Street ,Cleveland,OH,,USA
Honkytonk BBQ,1213 W 18th Street ,Chicago,IL,,USA
Rainbow Drive-In,3308 Kanaina Ave ,Honolulu,HI,,USA
Nico's Pier 38,1133 N. Nimitz Hwy ,Honolulu,HI,96817,USA
Jakes Good Eats,12721 Albemarle Rd ,Charlotte,NC,,USA
Hanks Haute Dogs,324 Coral St ,Honolulu,HI,,USA
Poke Stop,1840 Meheula Pkwy ,Mililani Town,HI,,USA
Pagoda Restaurant,431 N Santa Claus Lane ,North Pole,AK,,USA
Hot Licks,3453 College Road ,Fairbanks,AK,,USA
Highway Inn,94-226 Leoku Street ,Waipahu,HI,,USA
Big Daddy's BBQ and Banquet,107 Wickersham Street ,Fairbanks,AK,,USA
Tap Tap Restaurant,819 5th Street ,Miami Beach,FL,,USA
Donnie Mac's Trailer Park,1515 W Grove Street ,Boise,ID,,USA
Antojitos La Texanita,1667 Sebastopol Road ,Rosa,CA,,USA
Sophia Restaurant,749 Military Road ,Buffalo,NY,,USA
Pizza Junction,1269 Erie Avenue,North Tonawanda,NY,,USA
Louie's Restaurant,286 Brook Street ,Providence,RI,,USA
Liberty Elm Diner,777 Elmwood Ave ,Providence,RI,,USA
Lake Effect Diner,3165 Main Street ,Buffalo,NY,,USA
Grovers Bar and Grill,9160 Transit Road East ,Amherst,NY,,USA
Earl's Drive-In,12139 Olean Road ,Chaffee,NY,,USA
Blackthorn Restaurant and Pub,2134 Seneca St ,Buffalo,NY,,USA
Four Sisters Owl Diner,244 Appleton Street ,Lowell,MA,,USA
The Orchard House,14949 Sunnyslope Road ,Caldwell,ID,,USA
Sam La Grassa's,44 Province Street ,Boston,MA,,USA
Morin's Hometown Bar and Grille,16 S Main Street ,Attleboro,MA,,USA
Crazy Burger,144 Boon Street ,Narragansett,RI,,USA
Bartley's Burger Cottage,1246 Massachusetts Ave ,Cambridge,MA,,USA
Sterle's Slovenian Country House,1401 E 55th Street ,Cleveland,OH,,USA
Momocho Mod Mex,1835 Fulton Road ,Cleveland,OH,,USA
Melt Bar and Grilled,14718 Detroit Ave ,Lakewood,OH,,USA
Lucky's Cafe,777 Starkweather Ave ,Cleveland,OH,,USA
Geraci's Restaurant,2266 Warrensville Center Road ,Cleveland,OH,,USA
Oinkster,2005 Colorado Blvd ,Eagle Rock,CA,,USA
Cempazuchi,1205 E Brady Street ,Milwaukee,WI,,USA
Prince Lebanese Grill,502 W Randol Mill Road ,Arlington,TX,,USA
Pam's Trinidadian Caribbean Kitchen,1715 N 45th St ,Seattle,WA,98103,USA
Whale's Rib Raw Bar,2031 NE 2nd Street ,Deerfield Beach,FL,,USA
Polka Catering,4112 Verdugo Road ,Los Angeles,CA,,USA
Blueplate Lunch Counter and Soda Fountain,308 SW Washington Street ,Portland,OR,,USA
Brandy's Restaurant and Bakery,1500 E Cedar Ave ,Flagstaff,AZ,,USA
The Depot American Diner,5840 W Roosevelt Road ,Chicago,IL,60644,USA
Sonny's Famous Steak Hoagies,1857 NW 66TH Ave ,Hollywood,FL,33024,USA
Bunk Sandwiches,621 SE Morrison Street ,Portland,OR,97214,USA
The Shanty,38985 U.S. 41 ,Wadsworth,IL,60083,USA
The Red Lion Pub,2316 S Shepherd Drive ,Houston,TX,77019,USA
The Nickel Diner,524 S. Main Street ,Los Angeles,CA,90013,USA
The Diner,213 E Main Street ,Norman,OK,73069,USA
T-Bone Tom's Steakhouse,707 Hwy 146 ,Kemah,TX,77565,USA
Q Restaurant,225 Clement Street ,San Francisco,CA,94118,USA
Pok Pok Restaurant,3226 SE Division Street ,Portland,OR,97202,USA
Podnah's Pit Barbeque,1625 NE Killingsworth ,Portland,OR,97211,USA
PizzalChik,7330 W State Street ,Garden City,ID,83714,USA
Niko Niko's,2520 Montrose Blvd ,Houston,TX,77006,USA
Nic's Grill,1201 N Pennsylvania Ave ,Oklahoma City,OK,73107,USA
Mom's Tamales,3328 Pasadena Ave ,Los Angeles,CA,90031,USA
Mambo's Cafe,1701 Victory Blvd,Glendale,CA,91201,USA
Lankford Grocery and Market,88 Dennis Street ,Houston,TX,77006,USA
Kenny and Ziggy's Deli,1743 Post Oak Blvd ,Houston,TX,77056,USA
Ingrid's Kitchen,3701 N Youngs Blvd ,Oklahoma City,OK,73112,USA
Fab Hot Dogs,19417 Victory Blvd ,Reseda,CA,91335,USA
Eischen's Bar,109 N 2nd Street ,Okarche,OK,73762,USA
Cattlemen's Steakhouse,1309 S Agnew Ave ,Oklahoma City,OK,73108,USA
Cafe Pita,10890 Westheimer Road ,Houston,TX,77042,USA
Bob‚Äôs Taco Station,1901 Ave H Rosenberg,Rosenberg,TX,77471,USA
Bette‚Äôs Oceanview Diner,1807 4th Street ,Berkeley,CA,94710,USA
Comet Cafe,1947 N Farwell Ave.,Milwaukee,WI,53202,USA
Haus Murphy's,5739 W.  Avenue ,Glendale,AZ,85301,USA
Mama E's Wings and Waffles,3838 Springlake Drive ,Oklahoma City,OK,73111,USA
Rick's Press Room Grill and Bar NEW OWNERS,130 East Idaho Street ,Meridian,ID,83642,USA
Tre Kronor,3258 Foster Avenue ,Chicago,IL,60625,USA
Dottie's True Blue Cafe,28 6th Street,San San Francisco,CA,94103,USA
La Camaronera,1952 West Flagler Street ,Miami,FL,33135,USA
Donn's Hilltop Kodiak Grill,12342 East Highway 21 ,Boise,ID,83716,USA
Rocco's Ristorante,1131 Folsom Street ,San Francisco,CA,94103,USA
Pine State Biscuits,2204 NE Alberta Street ,Portland,OR,97211,USA
Blue Marlin,2500 North East 163rd Street N ,Miami,FL,33302,USA
Giuseppe's,2824 E Indian Road ,Phoenix,AZ,85016,USA
Southern Kitchen,1716 6th Avenue ,Tacoma,WA,98405,USA
Zia Diner,326 South Guadalupe ,Sante Fe,NM,87501,USA
Otto's Sausage,4138 SE Woodstock Blvd ,Portland,OR,97202,USA
Jamaica Gates Caribbean Cuisine,1020 W Arkansas ,Arlington,TX,76013,USA
Flakowitz of Boynton,7410 West  Blvd ,Boynton Beach,FL,33437,USA
Bubba's Diner,566  Avenue ,San Anselmo,CA,94960,USA
Arleta Library Bakery and Cafe,5513 SE 72nd ,Portland,OR,97206,USA
Twisted Root Burger Company,2615 Commerce Street,Dallas,TX,75226,USA
La Piazza Al Forno,5803 W  Avenue ,Glendale,AZ,85301,USA
Bizzarro Italian Cafe,1307 N 46th Street ,Seattle,WA,98103,USA
West Side Drive-In,1939 West State Street ,Boise,ID,83702,USA
Avila's,4714 Maple Avenue ,Dallas,TX,75219,USA
Over Easy,4730 E Indian School Road,Phoenix,AZ,85018,USA
Georgia's Greek,323 NW 85th Street ,Seattle,WA,98117,USA
Sol Food,901 Lincoln Ave,San Rafael,CA,94901,USA
Creolina's Dixie Take Out,13150 West State Road 84,Davie,FL,33325,USA
Blue Water Seafood,3667 India Street ,San Diego,CA,92103,USA
Fred's Texas Cafe,915 Currie Street ,Ft. Worth,TX,76107,USA
Los Taquitos,4747 East Elliot Road ,Phoenix,AZ,85044,USA
Havana Hideout,509 Lake Avenue ,Lake Worth,FL,33460,USA
Bar Gernika,202 South Capitol Blvd ,Boise,ID,83714,USA
Cafe Rolle,5737 H Street ,Sacramento,CA,95819,USA
Slim's Last Chance,5606 1st Avenue S ,Seattle,WA,98108,USA
Kuma's Corner,2900 W Belmont Ave ,Chicago,IL,60618,USA
Backroad Pizza,1807 2nd Street ,Sante Fe,NM,87505,USA
Black Duck Cafe,605 Riverside Avenue ,Westport,CT,6800,USA
Jamie's Grill and Bar,427 Braodway ,Sacramento,CA,95818,USA
Chef Point Cafe,5901 Watauga Rd.,Watauga,TX,76148,USA
Bert's Burger Bowl,235 N Guadalupe St. ,Sante Fe,NM,87501,USA
California Taco,3235 California Street ,Omaha,NE,68131,USA
Super Duper Weenie,306 Black Rock Turnpike ,Fairfield,CT,6825,USA
Louie's,1839 N Henderson Avenue ,Dallas,TX,75206,USA
Giusti's,14743 -Thornton Road ,Grove,CA,95690,USA
Kelly O's,1130 Perry Hwy ,Pittsburgh,PA,15237,USA
Joey K's,3001 Magazine St ,New Orleans,LA,70115,USA
Cecilia's Cafe,230 6TH St. SW ,Albuquerque,NM,87102,USA
Cemita's Puebla,3619 North Ave ,Chicago,IL,60647,USA
Moochie's Meatballs,232 E 800 S. ,Salt Lake City,UT,84111,USA
Big Mama's,2112 North 30th Street Suite 201 ,Omaha,NE,68111,USA
Casamento's,4330 Magazine St. ,New Orleans,LA,70115,USA
Nadine's,19 S. 27th St. ,Pittsburgh,PA,19203,USA
Brick Oven Pizza,800 S Broadway ,Baltimore,MD,21231,USA
Darwell's Cafe,127 E. First St. ,Long Beach,MS,39560,USA
Amato's,6405 Center Street ,Omaha,NE,68016,USA
Manci's Antique Club,1715 Main St. ,Daphne,AL,36526,USA
Colonnade,1879 Cheshire Bridge Road NE ,Atlanta,GA,30084,USA
Red Iguana,736 W North Temple ,Salt Lake City,UT,84116,USA
Crystal Restaurant,1211 Penn Avenue ,Pittsburgh,PA,15222,USA
Jamaica Kitchen,8736 SW 72 Street ,Miami,FL,33173,USA
Bryant Lake Bowl,801 W Lake St. ,Minneapolis,MN,55408,USA
The Cove,606 W. Cypress St. ,San Antonio,TX,78212,USA
Cabbagetown,198 Carroll St. SE ,Atlanta,GA,30312,USA
Dixie Quick's,157 West Broadway ,Council Bluffs,Iowa,51503,USA
Captain Chuck-a-Mucks,21088 Marina Road ,Carrollton,VA,23314,USA
Uncle Lou's,3633 Millbranch Road ,Memphis,TN,38116,USA
G and A Restaurant,3802 Eastern Avenue ,Baltimore,MD,21224,USA
Casino El Camino,517 E 6th St. ,Austin,TX,78701,USA
Starlite Lounge,364 Freeport Road ,Blawnox,PA,15238,USA
Guys Gumbo Shack,212 1/2  Ave. ,Fairhope,AL,36532,USA
The Highlander,931 Monroe Dr. Suite C-101 ,Atlanta,GA,30308,USA
Broadway Diner,6501 Eastern Ave ,Baltimore,MD,21224,USA
Blue Plate Diner,2041 S 2100 E ,Salt Lake City,UT,84108,USA
Rivershack Tavern,3449 River Rd. ,Jefferson,LA,70121,USA
Hank's Creekside Restaurant,2800 4th St. ,Santa Rosa,CA,95405,USA
Gorilla Barbeque,2145 Coast Highway ,Pacifica,CA,94044,USA
Green Mesquite,1400 Barton Springs Rd. ,Austin,TX,78704,USA
Dell Rhea's Chicken Basket,645 Joliet Road ,Willowbrook,IL,60527,USA
Salsa Brava,2220 E Route 66 ,Flagstaff,AZ,86004,USA
Standard Diner,320 Central Ave. SE ,Albuquerque,NM,87102,USA
Wilsons BBQ,1851 Post Rd Fairfield,Fairfield,CT,6824,USA
The Silver Skillet,200 14th St. ,Atlanta,GA,30318,USA
Tufano's Vernon Park Tap,1073 W Vernon Park ,Chicago,IL,60607,USA
Hob Nob Hill,2271 First Ave ,San Diego,CA,92101,USA
Big Jim's,201 Saline Street ,Pittsburgh,PA,15201,USA
Joe Tess Place,5424 South 24th Street ,Omaha,NE,68102,USA
Tommy's Joynt,1101 Geary Blvd. ,San Francisco,CA,94109,USA
Parasol's Restaurant & Bar,2533 Constance Street ,New Orleans,LA,70130,USA
O'Rourke's Diner,728 Main Street ,Middletown,CT,6457,USA
Ruth's Diner,2100 Emigration Canyon ,Salt Lake City,UT,84108,USA
Magnolia Cafe,1920 S Congress Ave ,Austin,TX,78704,USA
Sophia's Place,6313 4th St N.W. ,Albuquerque,NM,87107,USA
Surrey's Cafe,1418 Magazine Street ,New Orleans,LA,70130,USA
Dor-Stop Restaurant,1430 Potomac Ave ,Pittsburgh,PA,15216,USA
Harry's Roadhouse,96 Old Las Vegas ,Sante Fe,NM,,USA
Alcenia's,317 N Main Memphis,Memphis,TN,38103,USA
Stoney Creek Inn,8238 Fort Smallwood Road ,Baltimore,MD,21226,USA
Lo Bello's,809 Fifth Avenue ,Coraopolis,PA,15108,USA
Di Pasquale's,3700 Gough Street ,Baltimore,MD,21224,USA
Pizzeria Luigi,1137 25th Street ,San Diego,CA,92102,USA
Tune-Up Cafe,1115 Hickox Street ,Sante Fe,NM,87501,USA
Blow Fly Inn,1201 Washington Ave ,Gulfport,MS,39507,USA
Pat's BBQ,155 West Commonwealth Avenue ,Salt Lake City,UT,84115,USA
Lone Star Taqueria,2265 Fort Union Boulevard ,Salt Lake City,UT,84121,USA
Glenn's Diner,1820 W. Montrose Ave ,Chicago,IL,60613,USA
Brewburger's,4629 South 108th Street ,Omaha,NE,68127,USA
Valencia Luncheria,172 Main Street ,Norwalk,CT,6851,USA
The Original Vito and Nick's Pizzeria,8433 South Pulaski Road ,Chicago,IL,60652,USA
Emily's Lebanese Delicatessen,641 University Ave NE ,Minneapolis,MN,55416,USA
Burger Bar,5291 S 1900 W ,Roy,UT,84067,USA
Texas Pride BBQ,2980 E Tx 1604 Loop S ,Adkins,TX,78101,USA
The Joint,701 Mazant Street ,New Orleans,St. Louisiana,70117,USA
The Shed,7501 Hwy 57 ,Ocean Spings,MS,39565,USA
Tip Top Cafe,2814 Fredericksburg Rd. ,San Antonio,TX,78201,USA
Grinder's,417 E. 18th St. ,Kansas City,MO,64108,USA
Clanton's Cafe,319 E. Illinois Ave. ,Vinita,OK,74301,USA
The Wienery,414 Cedar Ave S. ,Minneapolis,MN,55467,USA
Byways Cafe,1212 NW Glisan ,Portland,OR,97209,USA
Modern Cafe,337 13th Ave NE ,Minneapolis,MN,55413,USA
Donatelli's,2692 East County Road E ,White Bear Lake,MN,55110,USA
Town Talk Diner NEW MGMT,2701 1/2 E. Lake St. ,Minneapolis,MN,55406,USA
Victor's 1959 Cafe,3756 Grand Ave S ,Minneapolis,MN,55409,USA
YJ's Snack Bar,128 W. 18th Street ,Kansas City,MO,64108,USA
Willie Bird's Restaurant,1150 Santa Rosa Avenue,Santa Rosa,CA,95404,USA
White Palace Grill,1159 S. Canal Street ,Chicago,IL,60607,USA
Voula's Offshore Cafe,658 NE Northlake Way ,Seattle,WA,98105,USA
Virginia Diner,408 County Drive N,Wakefield,VA,23888,USA
Village Cafe,1001 W. Grace Street ,Richmond,VA,23220,USA
Tom's Bar-B-Q,4087 New Getwell Road ,Memphis,TN,38118,USA
Thee Pitts Again,5558 W. Bell Road ,Glendale,AZ,85308,USA
Ted Peters Famous Smoked Fish,1350 Pasadena Avenue ,South Pasadena,FL,33707,USA
Tecolote Cafe,1203 Cerrillos Road ,Sante Fe,NM,87505,USA
Taylor's Automatic Refresher RENAMED Gott's Roadside Diner,933 Main Street ,Helena,CA,94574,USA
Sweetie Pie's,4270 Manchester Avenue ,St. Louis,MO,63110,USA
Studio Diner,4701 Ruffin Road ,San Diego,CA,92123,USA
Squeeze Inn,5301 Power Inn Road ,Sacramento,CA,95820,USA
South Side Soda Shop & Diner,1122 south Main Street ,Goshen,IN,46526,USA
Smoque,3800 N. Pulaski Road ,Chicago,IL,60641,USA
Smokey Valley Truck Stop,40 Bond Court ,Olive Hill,KY,41164,USA
Skylark Diner,Route 1 and Wooding Avenue ,Edison,NJ,8817,USA
Silk City Diner,435 Spring Garden Street ,Philadelphia,PA,19123,USA
Scully's Tavern,9809 Sunset Drive ,Miami,FL,33173,USA
Schooner or Later,241 N. Marina Drive ,Long Beach,CA,90803,USA
Russian River Pub,11829 River Road ,Forestville,CA,95436,USA
Rosie's Diner,4500 14 Mile Road ,Rockford,MI,49341,USA
The Rock Cafe,114 Main Street ,Stroud,OK,74079,USA
Roberto's Mexican Food NOW TORTAS CHANO,39510 N. Daisy Mountain Drive ,Anthem,AZ,85086,USA
The Ritz Diner,72 E. Mount Pleasant Avenue ,Livingston,NJ,7039,USA
Ramona Cafe,628 Main Street Ramona,Ramona,CA,92605,USA
Pizza Palace,3132 E. Magnolia Avenue ,Knoxville,TN,37914,USA
Penguin Drive-In,1921 Commonwealth Avenue ,Charlotte,NC,28205,USA
Patrick's Roadhouse,106 Entrada Drive ,Los Angeles,CA,90402,USA
Paradise Pup,1724 S. River Road ,Des Plaines,IL,60018,USA
Panini Pete's,42 1/2 South Section Street ,Fairhope,AL,36532,USA
The Original Falafel's Drive-In,2301 Stevens Creek Boulevard ,San Jose,CA,95128,USA
Mustache Bill's Diner,8th Avenue and Broadway Street ,Barnegat Light,NJ,8005,USA
Monte Carlo Steakhouse,3916 Central SW ,Albuquerque,NM,87105,USA
Mo Gridder's,565 Hunts Point Avenue ,Bronx,NY,2118,USA
Mike's City Diner,1714 Washington Street ,Boston,MA,2118,USA
Mike's Chili Parlor,1447 Northwest Ballard Way ,Seattle,WA,98107,USA
Matt's Big Breakfast,801 North 1st Street ,Phoenix,AZ,85004,USA
Matthew's Cafeteria,2299 Main Street ,Tucker,GA,30084,USA
Marlowe's Ribs,4381 Elvis Presley Boulevard ,Memphis,TN,38116,USA
Marietta Diner,306 Cobb Pkwy S ,Marietta,GA,30060,USA
Maria's Taco Xpress,2529 South Lamar Boulevard ,Austin,TX,78704,USA
39th Street Mama's,3906 Waddell Street ,Kansas City,MO,64111,USA
Mad Greek's Diner,72112  Boulevard ,Baker,CA,92309,USA
Mac and Ernie's Roadside Eatery,11804 FM 470 ,Tarpley,TX,78883,USA
Louie Mueller Barbecue,206 West Second Street ,Taylor,TX,76574,USA
Los Tapatios,1141 Old Bayshore Highway ,San Jose,CA,95112,USA
Little Tea Shop,69 Monroe Avenue ,Memphis,TN,38103,USA
Leo's BBQ,3631 North Kelley Avenue ,Oklahoma City,OK,73111,USA
Leonard's BBQ,5465 Fox Plaza Drive ,Memphis,TN,38115,USA
Krazy Jim's Blimpy Burger,304 S Ashley Street,Ann Arbor,MI,,USA
Kelly's Diner,674 Broadway ,Somerville,MA,2144,USA
Keegan's Seafood Grille,1519 Gulf Boulevard ,Indian Rocks Beach,FL,33785,USA
Joe's Gizzard City,120 West Main Street ,Potterville,MI,48876,USA
Joe's Cable Car,4320 Mission Street ,San Francisco,CA,94112,USA
Jefferson Diner,5 Bowling Green Parkway ,Lake Hopatong,NJ,7849,USA
Jay Bee's Bar-B-Que,15911 Avalon Boulevard ,Gardena,CA,90247,USA
Iron Barley,5510 Virginia Ave ,St. Louis,MO,63111,USA
Hullabaloo Diner,15045 FM 2154 Road ,College Station,TX,77845,USA
Hightstown Diner,151 Mercer Street ,Highstown,NJ,8520,USA
Harold's Restaurant,602 North Limestone Street ,Gaffney,SC,29340,USA
Hackney's On Harms,1241 Harms Road ,Glenview,IL,60025,USA
Grubstake Diner,1525 Pine Street ,San Francisco,CA,94109,USA
Grampa's Bakery,17 Southwest First Street ,Dania Beach,FL,33004,USA
Gaffey Street Diner,247 North Gaffey Street ,San Pedro,CA,90731,USA
The Frosted Mug,11541 South Pulaski Road ,Alsip,IL,60803,USA
Four Kegs Sports Pub,276 N Jones Blvd ,Las Vegas,NV,89107,USA
The Fly Trap,22950 Woodward Avenue ,Ferndale,MI,48220,USA
Evelyn's Drive-In,2325 Main Road (Route 77) ,Tiverton,RI,2878,USA
Charlie Parker's,700 North Street ,Springfiled,IL,62704,USA
Emma Jean's Holland Burger Cafe,17143 D Street ,Victorville,CA,92394,USA
11th Street Diner,1065 Washington Avenue ,Miami Beach,FL,33139,USA
El Indio,3695 India Street ,San Diego,CA,92103,USA
Duarte's Tavern,202 Stage Road ,Pescadero,CA,94060,USA
Doumars,1919 Monticello Avenue ,Norfolk,VA,23517,USA
Dot's Back Inn,4030 Macarthur Avenue ,Richmond,VA,23227,USA
The Dining Car,8826 Frankford Avenue ,Philadelphia,PA,19136,USA
Dari-Ette Drive-In,1440 Minnehaha Avenue East ,St. Paul,MN,55106,USA
Daddypops Diner,232 North York Road ,Hatboro,PA,19040,USA
Creole Creamery,4924 Prytania Street ,New Orleans,LA,70115,USA
Cozy Corner,745 North Parkway ,Memphis,TN,38105,USA
The Coffee Cup,512 Nevada Way ,Boulder City,NV,89005,USA
Charlie's Diner,5 Meadow Rd,Spencer,MA,1562,USA
Central City Cafe,529 14th Street West ,West Huntington,WV,25704,USA
Cafe On The Route RE-OPENED,1101 Military Avenue ,Baxter Springs,KS,66713,USA
BoBo Drive-In,2300 SW 10th Avenue ,Topeka,Kansas,66604,USA
Bobby's Hawaiian Style Restaurant,14626 Hwy 99 ,Lynnwood,WA,98087,USA
Madison Diner (was Big Star Diner),305 Madison Avenue North ,Bainbridge Island,WA,98110,USA
Benny's Seafood,2500 SW 107th Avenue ,Miami,FL,33165,USA
Beacon Drive-In,255 John B. White Boulevard ,Spartanburg,SC,29306,USA
BBQ Shack,1613 E. Peoria Street ,Paola,KS,66071,USA
Eveready Diner,4189 Albany Post Road ,Hyde Park,NY,12538,USA
White Manna Hamburgers,358 River Street ,Hackensack,NJ,7601,USA
Brownstone Diner,426 Jersey Avenue ,Jersey City,NJ,7302,USA
Red Arrow Diner,61 Lowell Street ,Manchester,NH,3101,USA
JT Farnham's Seafood and Grill,88 Eastern Ave ,South Essex,MA,1929,USA
Triple X Family Restaurant,2 North Salisbury Street ,West Lafayette,IN,47906,USA
Chap's Pit Beef,5801 Pulaski Highway ,Baltimore,MD,21205,USA
Hillbilly Hot Dogs,6591 Ohio River Road ,Lesage,WV,25537,USA
Bayway Diner,2019 South Wood Avenue ,Linden,NJ,7036,USA
Barbeque King Drive-In,2900 Wilkinson Boulevard ,Charlotte,NC,28208,USA
Baby Blues Bar-B-Q,444 Lincoln Boulevard ,Venice,CA,90291,USA
Aunt Lena's Creamery,4040 South Arizona Avenue ,Chandler,AZ,85248,USA
Alpine Steakhouse,4520 S. Tamiami Trail ,Sarasota,FL,34231,USA
Franks Diner,508 58th Street ,Kenosha,WI,53140,USA
Psycho Suzi's,1900 Marshall Street NE ,Minneapolis,MN,55418,USA
Al's Breakfast,413 14th Avenue SE ,Minneapolis,MN,55414,USA
Joe's Farm Grill,3000 E. Ray Road ,Gilbert,AZ,85296,USA
Hodad's,5010 Newport Avenue ,Ocean Beach,CA,92107,USA
Blue Moon Cafe,1621 Aliceanna Street ,Baltimore,MD,21321,USA
Tick Tock Diner,281 Allwood Road ,Clifton,NJ,7012,USA
A1 Diner,3 Bridge Street ,Gardiner,ME,4345,USA